PropertyName,PropertyAddress,City,State,Zip,County,CountyCode,CensusTract,CongressionalDistrict,Latitude,Longitude,TargetTenantType,S8_1_ProgramName,LIHTC_1_ProgramName
GOOD SHEPHERD HOMES,510 Centinela Ave,Inglewood,CA,90302-3246,Los Angeles,6037,6037600902,43,33.97285,-118.34935,Disabled,202/8 NC,4% Tax Credit
GRACE MANOR,508 Grace Ave,Inglewood,CA,90301-1338,Los Angeles,6037,6037601001,43,33.968018,-118.348181,Disabled,PRAC/811,
HOMEWARD BOUND 2000,419 E Tamarack Ave,Inglewood,CA,90301-6309,Los Angeles,6037,6037601002,43,33.95925,-118.34798,Disabled,PRAC/811,
HOMEWARD BOUND-INGLEWOOD,550 W Regent St,Inglewood,CA,90301-1080,Los Angeles,6037,6037601401,43,33.96387,-118.36551,Disabled,PRAC/811,
PACIFIC RIM APARTMENTS,230 S Grevillea Ave,Inglewood,CA,90301-2349,Los Angeles,6037,6037601211,43,33.96085,-118.3543,Disabled,202/8 NC,
REGENT PLAZA,201 W Regent St,Inglewood,CA,90301-1249,Los Angeles,6037,6037601211,43,33.96449,-118.35738,Elderly,Sec 8 NC,4% Tax Credit
REGENCY TOWERS,151 N Locust St,Inglewood,CA,90301-1864,Los Angeles,6037,6037601001,43,33.96396,-118.35082,Elderly,Sec 8 NC,4% Tax Credit
OSAGE SENIOR VILLAS,924 S Osage Ave,Inglewood,CA,90301-4100,Los Angeles,6037,6037601100,43,33.95163,-118.34513,Elderly or disabled,,9% Tax Credit
PATH VILLAS OSAGE APARTMENTS,812 S Osage Ave,Inglewood,CA,90301-3550,Los Angeles,6037,6037601002,43,33.953472,-118.34496,Family,,9% Tax Credit
REGENT SQUARE,527 W Regent St,Inglewood,CA,90301-1198,Los Angeles,6037,6037601401,43,33.964873,-118.365319,,,4% Tax Credit
WESTSIDE II,725 Hindry Ave,Inglewood,CA,90301-3259,Los Angeles,6037,6037601401,43,33.953836,-118.374435,,,TCEP
EUCALYPTUS PARK,811 N Eucalyptus Ave,Inglewood,CA,90302-2236,Los Angeles,6037,6037601303,43,33.97357,-118.36016,Elderly,Sec 8 NC,9% Tax Credit
INGLEWOOD MEADOWS,1 S Locust St,Inglewood,CA,90301-1808,Los Angeles,6037,6037601001,43,33.96298,-118.35027,Elderly,Sec 8 NC,4% Tax Credit
MARKET PARK APARTMENTS,601 N Market St,Inglewood,CA,90302-3047,Los Angeles,6037,6037600902,43,33.97124,-118.35549,Family,Preservation,4% Tax Credit
PATH VILLAS EUCALYPTUS,240 Lime St,Inglewood,CA,90301-2642,Los Angeles,6037,6037601212,43,33.957601,-118.358778,Elderly or disabled,,9% Tax Credit
OSAGE APARTMENTS,11128 S Osage Ave,Inglewood,CA,90304-2902,Los Angeles,6037,6037601700,43,33.9337,-118.34546,Family,,9% Tax Credit
MERIT HALL APARTMENTS,1035 Lewis Ave,Long Beach,CA,90813-3682,Los Angeles,6037,6037576401,47,33.7798,-118.17985,Disabled,PRAC/811,
DEL AMO GARDENS,225 W Del Amo Blvd,Long Beach,CA,90745,Los Angeles,6037,6037543501,44,33.826,-118.2694,Elderly,Preservation,
AMERICAN GOLD STAR MANOR,3021 N Gold Star Dr,Long Beach,CA,90810-2708,Los Angeles,6037,6037572500,47,33.814303,-118.217892,Elderly or disabled,,4% Tax Credit
PARK PACIFIC TOWER,714 Pacific Ave,Long Beach,CA,90813-4234,Los Angeles,6037,6037575803,47,33.775673,-118.193323,Elderly,LMSA,
SEAMIST TOWER,1451 Atlantic Ave,Long Beach,CA,90813-2076,Los Angeles,6037,6037575300,47,33.784667,-118.185159,Elderly,202/8 NC,4% Tax Credit
LONG BEACH MANOR,2209 Clark Ave,Long Beach,CA,90815-2522,Los Angeles,6037,6037574202,47,33.796523,-118.134524,Disabled,PRAC/811,
BELMENO MANOR,2441 Belmont Ave,Long Beach,CA,90815-1704,Los Angeles,6037,6037574202,47,33.801826,-118.144632,Disabled,PRAC/811,
SCHERER PARK APARTMENTS,4676 Long Beach Blvd,Long Beach,CA,90805-6961,Los Angeles,6037,6037571502,47,33.842607,-118.191831,Elderly,Sec 8 NC,
BEACHWOOD APARTMENTS,505 W 6th St,Long Beach,CA,90802-1109,Los Angeles,6037,6037575901,47,33.77443,-118.19842,Disabled,202/8 NC,4% Tax Credit
PACIFIC COAST VILLA,690 E Pacific Coast Hwy,Long Beach,CA,90806-5520,Los Angeles,6037,6037573202,47,33.78976,-118.18364,Family,Sec 8 NC,
CASA CORAZON,408 Elm Ave,Long Beach,CA,90802-2428,Los Angeles,6037,6037576200,47,33.77202,-118.18741,Disabled,PRAC/811,
CASITAS DEL MAR II,1030 Olive Ave,Long Beach,CA,90813-3519,Los Angeles,6037,6037576302,47,33.779558,-118.182538,Family,Sec 8 NC,
NORTHPOINTE APARTMENTS II,5441 N Paramount Blvd,Long Beach,CA,90805-5128,Los Angeles,6037,6037570603,44,33.85544,-118.161,Family,Preservation,4% Tax Credit
FEDERATION TOWER,3801 E Willow St,Long Beach,CA,90815-1734,Los Angeles,6037,6037574202,47,33.805296,-118.14821,Elderly,202/8 NC,
LUTHERAN TOWERS,2340 E 4th St,Long Beach,CA,90814-1173,Los Angeles,6037,6037576801,47,33.771422,-118.163447,Elderly,202/8 NC,
CASITAS DEL MAR I,1324 E Hellman St,Long Beach,CA,90813-4981,Los Angeles,6037,6037576402,47,33.7762,-118.17472,Family,Sec 8 NC,
PLYMOUTH WEST,240 Chestnut Ave,Long Beach,CA,90802-2949,Los Angeles,6037,6037575902,47,33.77011,-118.19596,Elderly,LMSA,4% Tax Credit
NEW HOPE HOME,1150 E New York St,Long Beach,CA,90813-2217,Los Angeles,6037,6037575201,47,33.78437,-118.1784,Elderly,LMSA,4% Tax Credit
COVENANT MANOR,600 E 4th St,Long Beach,CA,90802-2681,Los Angeles,6037,6037576200,47,33.77161,-118.18501,Elderly,202/8 NC,4% Tax Credit
PROVIDENCE GARDENS,1011 Pine Ave,Long Beach,CA,90813-3149,Los Angeles,6037,6037575803,47,33.77948,-118.19301,Elderly,LMSA,4% Tax Credit
CASITAS DEL MAR III,1430 E 17th St,Long Beach,CA,90813-2312,Los Angeles,6037,6037575201,47,33.78789,-118.21132,Family,Sec 8 NC,
ST MARY'S TOWER,1120 Atlantic Ave,Long Beach,CA,90813-3378,Los Angeles,6037,6037576302,47,33.78091,-118.18493,Elderly,202/8 NC,
LONG BEACH SENIOR HOUSING,575 E Vernon St,Long Beach,CA,90806-3180,Los Angeles,6037,6037573201,47,33.80375,-118.18557,Elderly,PRAC/202,
CITYVIEW APARTMENTS (FKA BRETHREN MANOR),3333 Pacific Pl,Long Beach,CA,90806-1259,Los Angeles,6037,6037572201,47,33.81768,-118.19522,,,4% Tax Credit
BEECHWOOD TERRACE,1117 Elm Ave,Long Beach,CA,90813-3299,Los Angeles,6037,6037576301,47,33.78145,-118.18836,Family,,9% Tax Credit
PACIFIC COURT APARTMENTS,250 Pacific Ave,Long Beach,CA,90802-3000,Los Angeles,6037,6037575902,47,33.7699,-118.19312,,,4% Tax Credit
CAMBRIDGE PLACE,421 W 33rd St,Long Beach,CA,90806-7386,Los Angeles,6037,6037572201,47,33.81731,-118.19651,Family,,9% Tax Credit
SEA GATE VILLAGE,1450 Locust Ave,Long Beach,CA,90813-5626,Los Angeles,6037,6037575402,47,33.7844,-118.19071,Elderly or disabled,,9% Tax Credit
VILLAGES AT CABRILLO,2001 River Ave,Long Beach,CA,90810-3622,Los Angeles,6037,6037572800,47,33.79161,-118.22227,,,9% Tax Credit
SPRINGDALE WEST APARTMENTS I & II,3120 N Springdale Dr,Long Beach,CA,90810-2696,Los Angeles,6037,6037572500,47,33.815111,-118.218579,Family,LMSA,4% Tax Credit
FAMILY COMMONS AT CABRILLO,2111 W Williams St,Long Beach,CA,90810-3627,Los Angeles,6037,6037572800,47,33.79299,-118.22128,Family,,9% Tax Credit
GRISHAM COMMUNITY HOUSING,11 W 49th St,Long Beach,CA,90805-7704,Los Angeles,6037,6037571701,44,33.84505,-118.19458,Family,,4% Tax Credit
DECRO LONG BEACH,745 Alamitos Ave,Long Beach,CA,90813-4700,Los Angeles,6037,6037576401,47,33.77604,-118.18029,Family,,4% Tax Credit
PACIFIC CITY LIGHTS,1643 Pacific Ave,Long Beach,CA,90813-6703,Los Angeles,6037,6037575401,47,33.78752,-118.19379,Family,,9% Tax Credit
EVERGREEN APARTMENTS,1528 Freeman Ave,Long Beach,CA,90804-1774,Los Angeles,6037,6037575103,47,33.78648,-118.15557,,,4% Tax Credit
ELM AVENUE APARTMENTS,530 Elm Ave,Long Beach,CA,90802-2413,Los Angeles,6037,6037576200,47,33.77348,-118.18757,,,9% Tax Credit
PUERTO DEL SOL APARTMENTS,745 W 3rd St,Long Beach,CA,90802-2709,Los Angeles,6037,6037575901,47,33.77058,-118.20138,Family,,4% Tax Credit
LONG BEACH BURNETT APARTMENTS,2355 Long Beach Blvd,Long Beach,CA,90806-3289,Los Angeles,6037,6037573100,47,33.79996,-118.18945,Family,,9% Tax Credit
CASITAS DEL MAR IV,851 Martin Luther King Jr Ave,Long Beach,CA,90813-4733,Los Angeles,6037,6037576302,47,33.78121,-118.1883,Family,Sec 8 NC,
PALACE HOTEL,2640 E Anaheim St,Long Beach,CA,90804-1209,Los Angeles,6037,6037576903,47,33.782316,-118.160228,,,TCEP
COURTYARDS IN LONG BEACH,1027 Redondo Ave,Long Beach,CA,90804,Los Angeles,6037,6037576903,47,33.77952,-118.15274,,,9% Tax Credit
LONG BEACH SENIOR ARTISTS COLONY,200 E Anaheim St,Long Beach,CA,90813-5432,Los Angeles,6037,6037576301,47,33.782501,-118.191078,Elderly or disabled,,4% Tax Credit
LONG BEACH & ANAHEIM,225 E 12th St,Long Beach,CA,90813-3190,Los Angeles,6037,6037576301,47,33.781732,-118.190299,Elderly or disabled,,9% Tax Credit
CABRILLO GATEWAY,2000 San Gabriel Ave,Long Beach,CA,90810-3601,Los Angeles,6037,6037572800,47,33.793001,-118.222902,Family,,9% Tax Credit
RAMONA PARK SENIOR,3290 E Artesia Blvd,Long Beach,CA,90805-7000,Los Angeles,6037,6037570204,44,33.874196,-118.154,Elderly or disabled,,4% Tax Credit
BELWOOD ARMS APARTMENTS,6301 Atlantic Ave,Long Beach,CA,90805-2974,Los Angeles,6037,6037570301,44,33.869159,-118.186223,,,4% Tax Credit
IMMANUEL PLACE (FKA IMMANUEL SENIOR HOUSING),3215 E 3rd St,Long Beach,CA,90814-2511,Los Angeles,6037,6037577100,47,33.768315,-118.154276,Elderly or disabled,,9% Tax Credit
BEACON PLACE,1201 Long Beach Blvd,Long Beach,CA,90813-3435,Los Angeles,6037,6037576301,47,33.781605,-118.189812,,,9% Tax Credit
PARTHENIA TOWNHOUSES,21218 Parthenia St,Los Angeles,CA,91304-1650,Los Angeles,6037,6037113234,30,34.2281,-118.59441,Family,Preservation,
CANOGA PARK,6824 Winnetka Ave,Los Angeles,CA,91306-3900,Los Angeles,6037,6037134800,30,34.194573,-118.570394,Family,Sec 8 NC,
MILWOOD APARTMENTS,6922 Milwood Ave,Los Angeles,CA,91303-2142,Los Angeles,6037,6037134520,30,34.19599,-118.59416,Elderly,Preservation,
ROSCOE PARK APARTMENTS,8332 Variel Ave,Los Angeles,CA,91304-4385,Los Angeles,6037,6037113234,30,34.22045,-118.59245,Family,Preservation,
DE SOTO GARDENS,8722 De Soto Ave,Los Angeles,CA,91304-1908,Los Angeles,6037,6037113421,30,34.22985,-118.58843,Family,Preservation,
ALABAMA COURT,7440 Alabama Ave,Los Angeles,CA,91303-1345,Los Angeles,6037,6037134522,30,34.2054,-118.59894,Family,,9% Tax Credit
NOBLE PINES APARTMENTS,21611 Saticoy St,Los Angeles,CA,91304-4944,Los Angeles,6037,6037134306,30,34.20837,-118.60068,Family,,9% Tax Credit
CASA DE CANOGA APARTMENTS,20717 Vanowen St,Los Angeles,CA,91306-3706,Los Angeles,6037,6037134904,30,34.19387,-118.58553,,,9% Tax Credit
VINTAGE CROSSING SENIOR APARTMENTS,6830 Jordan Ave,Los Angeles,CA,91303-4663,Los Angeles,6037,6037134520,30,34.19413,-118.60274,Elderly or disabled,,9% Tax Credit
HART VILLAGE,6941 Owensmouth Ave,Los Angeles,CA,91303-2070,Los Angeles,6037,6037134520,30,34.19569,-118.60164,Family,,9% Tax Credit
CASA MADRID,20721 Vanowen St,Los Angeles,CA,91306-3724,Los Angeles,6037,6037134904,30,34.22706,-118.465371,Family,,9% Tax Credit
VILLAGE WAY,20661 Lemarsh St,Los Angeles,CA,91311-3219,Los Angeles,6037,6037113322,30,34.255686,-118.583984,Disabled,PRAC/811,
CASTLEWOOD TERRACE II,16930 Chatsworth St,Los Angeles,CA,91344-7840,Los Angeles,6037,6037111400,30,34.264089,-118.500962,Elderly,PRAC/202,
RESEDA HORIZON,17831 San Jose St,Los Angeles,CA,91344-5925,Los Angeles,6037,6037111301,30,34.26135,-118.52196,Disabled,PRAC/811,
GRANADA GARDENS,16700 Chatsworth St,Los Angeles,CA,91344-6503,Los Angeles,6037,6037111400,30,34.26464,-118.49573,Family,LMSA,
PROJECT INDEPENDENCE,10454 Amestoy Ave,Los Angeles,CA,91344-6225,Los Angeles,6037,6037111301,30,34.26026,-118.50658,Disabled,PRAC/811,
CASTLEWOOD TERRACE,16920 Chatsworth St,Los Angeles,CA,91344-7839,Los Angeles,6037,6037111400,30,34.26467,-118.50054,Elderly,PRAC/202,
GREAT EXPECTATIONS,17026 Rinaldi St,Los Angeles,CA,91344-3543,Los Angeles,6037,6037106642,30,34.278784,-118.503242,Disabled,PRAC/811,
AVENIDA TERRACE APARTMENTS,245 S Avenue 54,Los Angeles,CA,90042-4563,Los Angeles,6037,6037183820,34,34.10469,-118.195434,Family,,9% Tax Credit
HOLLYWOOD PLAZA APARTMENTS,1637 Vine St,Los Angeles,CA,90028-8826,Los Angeles,6037,6037190700,28,34.100862,-118.327406,Elderly,LMSA,
WERNER ILLING HOUSE,1924 Argyle Ave,Los Angeles,CA,90068-3967,Los Angeles,6037,6037189500,28,34.1058,-118.32512,Elderly or disabled,,9% Tax Credit
WILCOX APARTMENTS,1805 Wilcox Ave,Los Angeles,CA,90028,Los Angeles,6037,6037190201,28,34.09751,-118.3311,Family,,9% Tax Credit
HAROLD WAY APARTMENTS,5521 Harold Way,Los Angeles,CA,90028-5461,Los Angeles,6037,6037190510,28,34.09941,-118.3097,,,9% Tax Credit
BUDLONG MANOR,11998 Terra Bella St,Los Angeles,CA,91342-7149,Los Angeles,6037,6037104108,29,34.27513,-118.39439,Elderly,Sec 8 NC,
WESTERN GARDENS,1742 W 84th Pl,Los Angeles,CA,90047-3065,Los Angeles,6037,6037238100,37,33.96135,-118.30853,Family,Sec 8 NC,
GEORGE MCDONALD COURT APARTMENTS,1800 E 92nd St,Los Angeles,CA,90002-2461,Los Angeles,6037,6037242200,44,33.952921,-118.240193,Elderly,PRAC/202,
SUBSIDIZED HOUSING CORPORATION 4,232 S Avenue 56,Los Angeles,CA,90042-4610,Los Angeles,6037,6037183820,34,34.105796,-118.193693,Family,Sec 8 NC,
ST NICHOLAS CEDARS MANOR,2323 W 4th St,Los Angeles,CA,90057-2748,Los Angeles,6037,6037208802,34,34.06386,-118.2757,Elderly,Sec 8 NC,
MIDWILSHIRE APARTMENTS,2826 S La Salle Ave,Los Angeles,CA,90018-3184,Los Angeles,6037,6037222200,37,34.029247,-118.304981,Family,LMSA,
SUBSIDIZED HOUSING CORPORATION 44,5415 Geer St,Los Angeles,CA,90016-3323,Los Angeles,6037,6037219901,37,34.03008,-118.36228,Family,Sec 8 NC,
E VICTOR VILLA,555 W 92nd St,Los Angeles,CA,90044-5654,Los Angeles,6037,6037240300,43,33.95333,-118.28415,Elderly,LMSA,4% Tax Credit
MARIPOSA MANOR,756 S Mariposa Ave,Los Angeles,CA,90005-2082,Los Angeles,6037,6037212304,34,34.058086,-118.29839,Elderly,PRAC/202,
DIANE APARTMENTS,782 N Van Ness Ave,Los Angeles,CA,90038-3136,Los Angeles,6037,6037191710,28,34.0853,-118.31562,Family,Sec 8 SR,
HOLLYWOOD PARKVIEW APARTMENTS,1244 S Lake St,Los Angeles,CA,90006-3668,Los Angeles,6037,6037209810,34,34.047959,-118.283302,Family,LMSA,
ONE SANTA FE,100 N Santa Fe Ave,Los Angeles,CA,90012-4021,Los Angeles,6037,6037206031,34,34.048746,-118.232243,,,4% Tax Credit
WATTS ARMS I,10130 Beach St,Los Angeles,CA,90002-3921,Los Angeles,6037,6037242200,44,33.94463,-118.2413,Family,LMSA,
LA PRO II,1100 S Berendo St,Los Angeles,CA,90006-3353,Los Angeles,6037,6037213320,34,34.05075,-118.29337,Family,LMSA,
BILLY G MILLS MANOR,1115 W 37th Pl,Los Angeles,CA,90007-4276,Los Angeles,6037,6037222600,37,34.020469,-118.292035,Family,Sec 8 NC,
DOLORES-FRANCES APARTMENTS,1119 W 17th St,Los Angeles,CA,90015-3385,Los Angeles,6037,6037224320,34,34.040972,-118.280487,Family,Sec 8 NC,
SUNSET-NORMANDIE TOWERS,1428 N Normandie Ave,Los Angeles,CA,90027-5846,Los Angeles,6037,6037191201,28,34.09728,-118.29999,Elderly,Sec 8 NC,
LA POSADA,151 N Sunol Dr,Los Angeles,CA,90063-1400,Los Angeles,6037,6037531102,40,34.0379,-118.17912,Elderly,202/8 NC,
HARVARD GARDENS,1938 S Harvard Blvd,Los Angeles,CA,90018,Los Angeles,6037,6037221402,34,34.0395,-118.30392,Family,Sec 8 NC,
ST ANDREWS GARDENS,2062 W Adams Blvd,Los Angeles,CA,90018-2054,Los Angeles,6037,6037221401,37,34.032591,-118.31108,Family,Preservation,
MIYAKO GARDEN APARTMENTS,223 S Central Ave,Los Angeles,CA,90012-4211,Los Angeles,6037,6037206200,34,34.04713,-118.23994,Elderly,Sec 8 NC,
VAN BUREN APARTMENTS,2723 Van Buren Pl,Los Angeles,CA,90007-2166,Los Angeles,6037,6037222200,37,34.03043,-118.29726,Family,LMSA,
LAS PALOMAS APARTMENTS,3025 Gleason Ave,Los Angeles,CA,90063-3066,Los Angeles,6037,6037204110,34,34.03902,-118.20122,Elderly,Sec 8 NC,
FAIRMOUNT TERRACE I AND II,4000 Fairmount St,Los Angeles,CA,90063-3349,Los Angeles,6037,6037530902,34,34.04661,-118.17909,Elderly,LMSA,
STOVALL TERRACE APARTMENTS,4075 S Figueroa St,Los Angeles,CA,90037-2055,Los Angeles,6037,6037231720,37,34.01019,-118.28281,Elderly,202/8 NC,
CASA SERENA APARTMENTS,5017 Axtell St,Los Angeles,CA,90032-2262,Los Angeles,6037,6037201503,34,34.08656,-118.17305,Elderly,Sec 8 NC,
WESTSIDE JEWISH CENTER APARTMENTS,5877 San Vicente Blvd,Los Angeles,CA,90019-6623,Los Angeles,6037,6037216300,37,34.05641,-118.35945,Elderly,202/8 NC,
HOLLYWOOD FOUNTAIN SOUTH,6222 Fountain Ave,Los Angeles,CA,90028-8273,Los Angeles,6037,6037190801,28,34.094,-118.32525,Elderly,Sec 8 NC,
HOLLYWOOD FOUNTAIN NORTH,6233 Fountain Ave,Los Angeles,CA,90028-8266,Los Angeles,6037,6037190801,28,34.094632,-118.3256,Elderly,Sec 8 NC,
80TH STREET APARTMENTS,710 W 80th St,Los Angeles,CA,90044-5945,Los Angeles,6037,6037238310,37,33.96639,-118.28579,Family,LMSA,
CASA TELACU,251 S Arizona Ave,Los Angeles,CA,90022-1600,Los Angeles,6037,6037530500,40,34.033876,-118.164269,Elderly,202/8 NC,
ADAMS BLVD APARTMENTS,4230 W Adams Blvd,Los Angeles,CA,90018-2275,Los Angeles,6037,6037218702,37,34.03224,-118.33189,Family,Sec 8 NC,
CARONDELET SNR CIT APARTMENTS,512 S Carondelet St,Los Angeles,CA,90057-1868,Los Angeles,6037,6037208802,34,34.06199,-118.2782,Elderly,Sec 8 NC,
S & J LIMITED II,679 E 41st St,Los Angeles,CA,90011-2738,Los Angeles,6037,6037228310,40,34.00947,-118.26374,Family,Sec 8 SR,
IMOGENE HOUSING,716 Imogen Ave,Los Angeles,CA,90026-3582,Los Angeles,6037,6037195903,28,34.082774,-118.282508,Family,Sec 8 NC,
ALLESANDRO STREET APARTMENTS,1934 Allesandro St,Los Angeles,CA,90039-3984,Los Angeles,6037,6037197410,28,34.09103,-118.25783,Disabled,PRAC/811,
ECHO PARK SENIOR HOUSING,1727 Morton Ave,Los Angeles,CA,90026-2697,Los Angeles,6037,6037197300,28,34.083298,-118.25164,Elderly,PRAC/202,
HELMS MANOR,3704 Military Ave,Los Angeles,CA,90034-7017,Los Angeles,6037,6037271801,37,34.01674,-118.41543,Disabled,PRAC/811,
PALMS MANOR,3740 Kelton Ave,Los Angeles,CA,90034-7124,Los Angeles,6037,6037271802,37,34.01712,-118.4123,Disabled,PRAC/811,
LIME HOUSE,1800 W Martin Luther King Jr Blvd,Los Angeles,CA,90062-1577,Los Angeles,6037,6037231500,37,34.01076,-118.31134,Elderly,PRAC/202,
WATERLOO HEIGHTS APARTMENTS,1011 Waterloo St,Los Angeles,CA,90026-3087,Los Angeles,6037,6037195710,28,34.07752,-118.26793,Disabled,PRAC/811,
WESTMINSTER ARMS,3405 Arlington Ave,Los Angeles,CA,90018-3755,Los Angeles,6037,6037219020,37,34.02524,-118.31791,Elderly,PRAC/202,
BEVERLY PARK SENIOR,1071 S La Cienega Blvd,Los Angeles,CA,90035-2560,Los Angeles,6037,6037216401,37,34.057438,-118.376329,Family,Sec 8 NC,4% Tax Credit
HOLIDAY 101 A,1102 W 41st Pl,Los Angeles,CA,90037-1838,Los Angeles,6037,6037231600,37,34.007926,-118.294356,Family,LMSA,
BROWNING APARTMENTS,1104 Browning Blvd,Los Angeles,CA,90037-1662,Los Angeles,6037,6037231220,37,34.01196,-118.29365,Family,Sec 8 NC,
GRIFFITH GARDENS,1144 E 24th St,Los Angeles,CA,90011-1642,Los Angeles,6037,6037226420,40,34.021191,-118.256218,Family,LMSA,
TOWNE SQUARE APARTMENTS,11620 Towne Ave,Los Angeles,CA,90061-2955,Los Angeles,6037,6037241001,43,33.92858,-118.26609,Family,LMSA,
METRO WEST VILLAGE APARTMENTS,1212 W 110th St,Los Angeles,CA,90044-1447,Los Angeles,6037,6037600303,43,33.93502,-118.29677,Family,LMSA,
L A PRO 30,1340 S Westlake Ave,Los Angeles,CA,90006-5076,Los Angeles,6037,6037224310,34,34.04572,-118.28247,Family,LMSA,
VENDOME COURTS,135 S Reno St,Los Angeles,CA,90057-1140,Los Angeles,6037,6037208610,34,34.07061,-118.28212,Family,LMSA,
JEWEL TERRACES,1420 W 27th St,Los Angeles,CA,90007-2171,Los Angeles,6037,6037221810,37,34.03039,-118.29273,Family,LMSA,
MANHATTAN GARDENS,1424 S Manhattan Pl,Los Angeles,CA,90019-4703,Los Angeles,6037,6037221303,34,34.045545,-118.309805,Family,Sec 8 NC,
SUNSET APARTMENTS,1711 Park Ave,Los Angeles,CA,90026-3261,Los Angeles,6037,6037197500,28,34.07581,-118.25984,Family,LMSA,
WATTS ARMS II,1720 E Century Blvd,Los Angeles,CA,90002-3063,Los Angeles,6037,6037242200,44,33.945499,-118.242245,Elderly,LMSA,
VILLA ST ANDREWS,1840 S St Andrews Pl,Los Angeles,CA,90019-6456,Los Angeles,6037,6037221302,34,34.04046,-118.31147,Family,LMSA,
CASTLE ARGYLE APARTMENTS,1919 Argyle Ave,Los Angeles,CA,90068-3965,Los Angeles,6037,6037189500,28,34.10591,-118.32562,Elderly,LMSA,
CASA DE WOODS,1951 W 22nd St,Los Angeles,CA,90018-1660,Los Angeles,6037,6037221500,37,34.03642,-118.30444,Family,LMSA,
CASA LONGWOOD,2535 S Longwood Ave,Los Angeles,CA,90016-2853,Los Angeles,6037,6037219700,37,34.03305,-118.34958,Elderly,LMSA,
LOS ANGELES GARDENS,2624 S Harvard Blvd,Los Angeles,CA,90018-3556,Los Angeles,6037,6037222200,37,34.03225,-118.30657,Family,LMSA,
PRESERVATION I,2628 West Blvd,Los Angeles,CA,90016-3065,Los Angeles,6037,6037220000,37,34.031607,-118.341313,Family,LMSA,
VISTA TOWER,3000 Leeward Ave,Los Angeles,CA,90005-1463,Los Angeles,6037,6037212203,34,34.05861,-118.28909,Elderly,LMSA,4% Tax Credit
BEVERLY MANOR,334 N Normandie Ave,Los Angeles,CA,90004-4433,Los Angeles,6037,6037192620,34,34.07664,-118.30032,Family,LMSA,
PREMIER APARTMENTS,368 E Imperial Hwy,Los Angeles,CA,90061-3046,Los Angeles,6037,6037241001,43,33.930741,-118.266919,Family,LMSA,
HUBBARD STREET ARMS,3739 Hubbard St,Los Angeles,CA,90023-1844,Los Angeles,6037,6037531202,40,34.02659,-118.1909,Family,LMSA,
HOLIDAY 101 B,4163 Monroe St,Los Angeles,CA,90029-2854,Los Angeles,6037,6037191420,28,34.08572,-118.28835,Family,LMSA,
TWO WORLDS II,420 S Union Ave,Los Angeles,CA,90017-1056,Los Angeles,6037,6037209102,34,34.05915,-118.26829,Family,LMSA,
HOLIDAY 102,427 Union Dr,Los Angeles,CA,90017-1551,Los Angeles,6037,6037208904,34,34.05855,-118.26817,Family,LMSA,
LITTLE TOKYO TOWERS,455 E 3rd St,Los Angeles,CA,90013-1634,Los Angeles,6037,6037206200,34,34.04718,-118.24077,Elderly,LMSA,
FIGUEROA GARDENS APARTMENTS,4550 N Figueroa St,Los Angeles,CA,90065-3042,Los Angeles,6037,6037185100,34,34.09705,-118.20572,Family,Preservation,
HOLLYWOOD WEST APARTMENTS,5822 Willoughby Ave,Los Angeles,CA,90038-3048,Los Angeles,6037,6037191820,28,34.08703,-118.32275,Family,LMSA,
615 MANHATTAN,615 S Manhattan Pl,Los Angeles,CA,90005-3068,Los Angeles,6037,6037211704,34,34.06324,-118.31042,Elderly,LMSA,4% Tax Credit
JUANITA APARTMENTS,624 N Juanita Ave,Los Angeles,CA,90004-2200,Los Angeles,6037,6037192700,28,34.08268,-118.29016,Family,Sec 8 NC,
HAVEN 502,825 W Adams Blvd,Los Angeles,CA,90007-2565,Los Angeles,6037,6037224420,37,34.03074,-118.28095,Family,LMSA,
CANNON APARTMENTS,9215 Hooper Ave,Los Angeles,CA,90002-2033,Los Angeles,6037,6037535200,44,33.952674,-118.254287,Family,Preservation,
BUDLONG APARTMENTS,11015 S Budlong Ave,Los Angeles,CA,90044-1565,Los Angeles,6037,6037600303,43,33.93483,-118.29645,Family,LMSA,
LEASTER APARTMENTS,1422 Miramar St,Los Angeles,CA,90026-6054,Los Angeles,6037,6037208302,34,34.0593,-118.2619,Family,202/8 NC,
PRINCESS APARTMENTS,1648 N Kingsley Dr,Los Angeles,CA,90027-5067,Los Angeles,6037,6037190520,28,34.10129,-118.30293,Family,LMSA,
OXFORD PARK,1920 S Oxford Ave,Los Angeles,CA,90018-1549,Los Angeles,6037,6037221402,34,34.03919,-118.30737,Elderly,Preservation,
DUDLEY OAKS,2119 Oak St,Los Angeles,CA,90007-1912,Los Angeles,6037,6037224410,37,34.034135,-118.279872,Family,Preservation,
MCA #3 APARTMENTS,3940 Gibraltar Ave,Los Angeles,CA,90008-1265,Los Angeles,6037,6037236202,37,34.01563,-118.35473,Family,PD/8 Existing,
1035 W 39TH ST APARTMENTS,1035 W 39th St,Los Angeles,CA,90037-1592,Los Angeles,6037,6037231220,37,34.01557,-118.29252,Family,Sec 8 NC,
MAIN STREET NEW HOPE COURTYARD,109 W 56th St,Los Angeles,CA,90037-4511,Los Angeles,6037,6037232800,40,33.99158,-118.27411,Elderly,PRAC/811,
SOUTHSIDE APARTMENTS,10950 S Central Ave,Los Angeles,CA,90059-1024,Los Angeles,6037,6037242000,43,33.935733,-118.254091,Disabled,PD/8 Existing,
GRANDVIEW HOMES,1114 S Grand View St,Los Angeles,CA,90006-3657,Los Angeles,6037,6037209810,34,34.050445,-118.283077,Family,Sec 8 NC,
CASA DEVELOPMENT,1151 N New Hampshire Ave,Los Angeles,CA,90029-1707,Los Angeles,6037,6037191203,28,34.0923,-118.29311,Family,LMSA,
JEFFERSON VILLAS,1286 W Jefferson Blvd,Los Angeles,CA,90007,Los Angeles,6037,6037222600,37,34.025211,-118.294262,Family,Sec 8 NC,
HAVEN 501,1330 S Burlington Ave,Los Angeles,CA,90006-5468,Los Angeles,6037,6037224320,34,34.045,-118.27916,Family,LMSA,
TELACU PICO ALISO,1450 E 1st St,Los Angeles,CA,90033-3327,Los Angeles,6037,6037206032,34,34.047084,-118.224693,Elderly,PRAC/202,
WILLS MANOR,1510 W 27th St,Los Angeles,CA,90007-2143,Los Angeles,6037,6037221810,37,34.030218,-118.294889,Disabled,PRAC/811,
CORONADO VILLAS,1632 N Coronado St,Los Angeles,CA,90026,Los Angeles,6037,6037195500,28,34.086289,-118.263655,Family,Sec 8 NC,
JEFFERSON TOWNHOMES,1693 W Jefferson Blvd,Los Angeles,CA,90018-3973,Los Angeles,6037,6037222100,37,34.02579,-118.30599,Family,Sec 8 NC,4% Tax Credit
GLAD PROJECT,2222 Laverna Ave,Los Angeles,CA,90041-2660,Los Angeles,6037,6037181600,34,34.13336,-118.21668,Family,PRAC/811,
PARK VIEW TERRACE APARTMENTS,2451 W 7th St,Los Angeles,CA,90057-3959,Los Angeles,6037,6037208802,34,34.058461,-118.281012,Elderly,Sec 8 NC,
SUBSIDIZED HOUSING CORPORATION 116,247 W 84th St,Los Angeles,CA,90003-2815,Los Angeles,6037,6037239702,43,33.96352,-118.27704,Family,Sec 8 NC,
WESTSIDE CLOVERDALE,3006 S Cloverdale Ave,Los Angeles,CA,90016-3835,Los Angeles,6037,6037219901,37,34.026167,-118.359572,Family,PD/8 Existing,
GREENFIELD MANOR,3753 Greenfield Ave,Los Angeles,CA,90034-7029,Los Angeles,6037,6037271801,37,34.015738,-118.413999,Disabled,PRAC/811,
BALDWIN VILLA PLAZA,3939 Marlton Ave,Los Angeles,CA,90008-1753,Los Angeles,6037,6037236100,37,34.013704,-118.336752,Elderly,HFDA/8 NC,
WILTON WILSHIRE ARMS,3966 Wilshire Blvd,Los Angeles,CA,90010-3309,Los Angeles,6037,6037212610,34,34.0616,-118.31282,Elderly,Sec 8 NC,
WILLOW BROOK VILLA,4341 Willow Brook Ave Apt 316,Los Angeles,CA,90029-2922,Los Angeles,6037,6037191410,28,34.090192,-118.286012,Elderly,Sec 8 NC,
UNION FERRARO TOWERS,455 S Union Ave,Los Angeles,CA,90017-1005,Los Angeles,6037,6037208904,34,34.058799,-118.269382,Family,Sec 8 NC,
10TH AVE TOWN HOMES,6312 10th Ave,Los Angeles,CA,90043-4171,Los Angeles,6037,6037234901,37,33.98245,-118.3275,Family,Sec 8 NC,
97TH ST TOWNHOMES,731 W 97th St,Los Angeles,CA,90044-4609,Los Angeles,6037,6037240401,43,33.94795,-118.28766,Family,Sec 8 NC,
HOLIDAY 101 C,751 N Hoover St,Los Angeles,CA,90029-3617,Los Angeles,6037,6037191420,28,34.084677,-118.284579,Family,LMSA,
NEW HAMPSHIRE ARMS,819 S New Hampshire Ave,Los Angeles,CA,90005,Los Angeles,6037,6037212306,34,34.05704,-118.29296,Elderly,Sec 8 NC,
ACCESSIBLE APARTMENTS NO 1-LOS ANGELES,2628 Brighton Ave,Los Angeles,CA,90018-2752,Los Angeles,6037,6037222200,37,34.03166,-118.30113,Disabled,202/8 NC,
CATHAY MANOR,600 N Broadway,Los Angeles,CA,90012-2840,Los Angeles,6037,6037207102,34,34.05903,-118.23954,Elderly,202/8 NC,
CASA PAREDES,501 N Soto St,Los Angeles,CA,90033-1972,Los Angeles,6037,6037203600,34,34.04872,-118.20697,Disabled,202/8 NC,4% and 9% Tax Credit
PICO WOOSTER SR CTZ HSNG,1425 S Wooster St,Los Angeles,CA,90035-3456,Los Angeles,6037,6037217002,37,34.05393,-118.38302,Elderly,202/8 NC,
TELACU PLAZA,1033 S Hope St,Los Angeles,CA,90015-1430,Los Angeles,6037,6037207900,34,34.04328,-118.26221,Disabled,202/8 NC,
ALICE MANOR,10325 Grandee Ave,Los Angeles,CA,90002-3651,Los Angeles,6037,6037242700,44,33.94279,-118.2436,Elderly,202/8 NC,
FAME ARMS,2420 S Western Ave,Los Angeles,CA,90018-2650,Los Angeles,6037,6037221500,37,34.03405,-118.30842,Disabled,202/8 NC,
BOYLE APARTMENTS,427 S Boyle Ave,Los Angeles,CA,90033-3852,Los Angeles,6037,6037206050,34,34.04263,-118.21969,Family,LMSA,
BURLINGTON ARMS,817 S Burlington Ave,Los Angeles,CA,90057-4250,Los Angeles,6037,6037209403,34,34.052902,-118.27518,Elderly,HFDA/8 NC,
FINLEY SQUARE,407 E 120th St,Los Angeles,CA,90061-2830,Los Angeles,6037,6037241002,44,33.924143,-118.267006,Family,LMSA,
BUCKINGHAM APARTMENTS,4050 Ursula Ave,Los Angeles,CA,90008-2069,Los Angeles,6037,6037236202,37,34.013489,-118.35207,Family,Sec 8 SR,
CARTER HOUSE,449 W 78th St,Los Angeles,CA,90003-2773,Los Angeles,6037,6037237720,37,33.96907,-118.28216,Disabled,PRAC/811,
FREEMAN VILLA,1229 S Westmoreland Ave,Los Angeles,CA,90006-3473,Los Angeles,6037,6037213402,34,34.048132,-118.289559,Elderly,HFDA/8 NC,4% Tax Credit
1309 SECOND AVENUE APARTMENTS,1309 2nd Ave,Los Angeles,CA,90019-4562,Los Angeles,6037,6037218120,34,34.04709,-118.319,Family,PD/8 Existing,9% Tax Credit
FREEWAY REDEVELOPMENT,2827 Wabash Ave,Los Angeles,CA,90033-2604,Los Angeles,6037,6037203200,34,34.050423,-118.196981,Family,LMSA,
STEEL PLAZA,1711 W 3rd St,Los Angeles,CA,90017-1162,Los Angeles,6037,6037208401,34,34.061095,-118.268163,Elderly,PRAC/202,
LA PRO XXXII APARTMENTS,1348 Ingraham St,Los Angeles,CA,90017-2316,Los Angeles,6037,6037209102,34,34.053498,-118.268729,Elderly,LMSA,
LA VILLA HERMOSA,1530 W Jefferson Blvd,Los Angeles,CA,90018-3970,Los Angeles,6037,6037222500,37,34.02523,-118.302733,Family,Sec 8 NC,
SILVERLAKE VILLAGE,3740 Evans St,Los Angeles,CA,90027-3345,Los Angeles,6037,6037195201,28,34.10616,-118.27404,Family,Preservation,4% Tax Credit
PILGRIM TOWER,1207 S Vermont Ave,Los Angeles,CA,90006-2744,Los Angeles,6037,6037213320,34,34.04865,-118.29212,Disabled,LMSA,4% Tax Credit
MT MORIAH SENIOR VILLA,476 W 43rd St,Los Angeles,CA,90037-2662,Los Angeles,6037,6037231720,37,34.00536,-118.28229,Elderly,PRAC/202,
TURNER APARTMENTS,7000 S Hoover St,Los Angeles,CA,90044-5260,Los Angeles,6037,6037237600,37,33.975766,-118.286719,Family,PD/8 Existing,9% Tax Credit
PLEASANT HILLS HOME,1315 Pleasant Ave,Los Angeles,CA,90033-2363,Los Angeles,6037,6037203500,34,34.052173,-118.221916,Family,Sec 8 NC,
NELD NORTH APARTMENTS,710 W 30th St,Los Angeles,CA,90007-3757,Los Angeles,6037,6037224700,37,34.02572,-118.28024,Family,LMSA,
WATTS-ATHENS,717 W 81st St,Los Angeles,CA,90044-5969,Los Angeles,6037,6037238310,37,33.96559,-118.28587,Family,Sec 8 NC,
LAS PALMAS,1778 N LAS PALMAS AVE,Los Angeles,CA,90028,Los Angeles,6037,6037190202,28,34.103733,-118.335945,Elderly,Sec 8 NC,
HDR Fund II Apartments,111 S Avenue 63,Los Angeles,CA,90042-3625,Los Angeles,6037,6037183101,34,34.114487,-118.183329,,LMSA,
CASA GRIFFIN APARTMENTS,2669 Griffin Ave,Los Angeles,CA,90031-2349,Los Angeles,6037,6037199201,34,34.078508,-118.212261,Family,LMSA,4% Tax Credit
MARTEL PARK,907 N Martel Ave,Los Angeles,CA,90046,Los Angeles,6037,6037192001,28,34.08782,-118.3512,Elderly,Sec 8 NC,
HDR FUND 1 APARTMENTS,2714 Orchard Ave,Los Angeles,CA,90007-2355,Los Angeles,6037,6037221820,37,34.03007,-118.28733,Family,LMSA,
PROGRESSIVE HOME ELDERLY,7010 Denver Ave,Los Angeles,CA,90044-6269,Los Angeles,6037,6037237600,37,33.975726,-118.283257,Elderly,LMSA,
CLARK SENIORS APARTMENTS,1156 S Clark Dr,Los Angeles,CA,90035-1400,Los Angeles,6037,6037217001,37,34.05588,-118.38465,Elderly,HFDA/8 NC,
GRANDVIEW TERRACE,3940 Grand View Blvd,Los Angeles,CA,90066-4559,Los Angeles,6037,6037272302,37,34.00203,-118.4289,Elderly,HFDA/8 NC,
HOLLYWOODLAND GOWER APARTMENTS,1206 N Gower St,Los Angeles,CA,90038-1876,Los Angeles,6037,6037190902,28,34.09285,-118.32194,Family,Sec 8 SR,
COLUMBIA APARTMENTS,1522 W 11th Pl,Los Angeles,CA,90015-2035,Los Angeles,6037,6037210010,34,34.046268,-118.27465,Family,LMSA,
ROBERT FARRELL MANOR,1818 W 71st St,Los Angeles,CA,90047-1857,Los Angeles,6037,6037237300,37,33.97499,-118.30954,Family,Sec 8 NC,
ROYAL APARTMENTS I,772 N Van Ness Ave,Los Angeles,CA,90038-3165,Los Angeles,6037,6037191710,28,34.085262,-118.315394,Family,LMSA,
LELAND COURTS,5234 Melrose Ave,Los Angeles,CA,90038-4356,Los Angeles,6037,6037192410,28,34.08316,-118.31478,Family,Sec 8 SR,
SHERIDAN WEST VILLA,621 W 81st St,Los Angeles,CA,90044-5941,Los Angeles,6037,6037238310,37,33.9656,-118.28446,Family,LMSA,
GOOD SHEPHERD MANOR,4411 11th Ave,Los Angeles,CA,90043-5445,Los Angeles,6037,6037234502,37,34.003375,-118.329588,Elderly,LMSA,
SILVER LAKE NEW HOPE COURTYARD APARTMENTS,2301 Brier Ave,Los Angeles,CA,90039-3271,Los Angeles,6037,6037187300,28,34.10022,-118.25803,Disabled,PRAC/811,
MADISON SENIOR HOUSING,1145 N MADISON AVE,Los Angeles,CA,90029,Los Angeles,6037,6037191301,28,34.092182,-118.289497,Elderly,PRAC/202,
MAC ARTHUR PARK TOWERS,450 S Grand View St,Los Angeles,CA,90057-2850,Los Angeles,6037,6037208801,34,34.06243,-118.27557,Elderly,LMSA,4% Tax Credit
HANCOCK GARDENS APARTMENTS,303 S Van Ness Ave,Los Angeles,CA,90020-4650,Los Angeles,6037,6037211701,34,34.06856,-118.31568,Elderly,Sec 8 NC,4% Tax Credit
HAPPY VALLEY VILLA,3035 Sierra St,Los Angeles,CA,90031-2144,Los Angeles,6037,6037199202,34,34.0817,-118.20154,Family,LMSA,
SHERIDAN MANOR,10634 S Central Ave,Los Angeles,CA,90002-3468,Los Angeles,6037,6037242000,43,33.93945,-118.25376,Family,LMSA,
SHERIDAN EAST VILLA,120 W 78th St,Los Angeles,CA,90003-2449,Los Angeles,6037,6037239602,40,33.96879,-118.27445,Family,LMSA,
SOUTH SIDE APARTMENTS,923 E 79th St,Los Angeles,CA,90001-2917,Los Angeles,6037,6037239502,40,33.967729,-118.257582,Family,PD/8 Existing,
WATTSWOOD RELOCATION,6415 Makee Ave,Los Angeles,CA,90001-1768,Los Angeles,6037,6037533001,40,33.981036,-118.246866,Family,PD/8 MR,
SOUTH CENTRAL SITES,2013 E 92nd St,Los Angeles,CA,90002-2507,Los Angeles,6037,6037535400,44,33.95335,-118.2356,Family,HFDA/8 SR,
SHERIDAN SOUTH VILLA,7219 S San Pedro St,Los Angeles,CA,90003-2246,Los Angeles,6037,6037239601,40,33.974097,-118.269891,Family,LMSA,
WESTINGTON,1914 Walgrove Ave,Los Angeles,CA,90066-3032,Los Angeles,6037,6037272100,37,34.003134,-118.450563,Disabled,202/8 NC,
WESTSIDE APARTMENTS,1811 W 36th Pl,Los Angeles,CA,90018-4403,Los Angeles,6037,6037222002,37,34.02215,-118.31235,Family,LMSA,
WILSHIRE TOWERS,616 S Normandie Ave,Los Angeles,CA,90005-2647,Los Angeles,6037,6037212102,34,34.06284,-118.3,Elderly,LMSA,4% Tax Credit
MASSELIN SENIOR HOUSING,404 S Cochran Ave,Los Angeles,CA,90036-3386,Los Angeles,6037,6037215102,33,34.066714,-118.346908,Elderly,PRAC/202,
ANGELUS PLAZA II,200 S Olive St,Los Angeles,CA,90012-5101,Los Angeles,6037,6037207502,34,34.053224,-118.248851,Elderly,Sec 8 NC,4% Tax Credit
PRESERVATION II,3012 Halldale Ave,Los Angeles,CA,90018-3181,Los Angeles,6037,6037222100,37,34.02687,-118.30238,Family,LMSA,
ARIRANG HOUSING,1725 Whitley Ave,Los Angeles,CA,90028-4808,Los Angeles,6037,6037190202,28,34.10209,-118.33342,Elderly,PRAC/202,
ALVARADO GARDENS,1800 N Alvarado St,Los Angeles,CA,90026-1745,Los Angeles,6037,6037197420,28,34.087005,-118.257541,Family,LMSA,
LAS TORRES,944 Grattan St,Los Angeles,CA,90015-1139,Los Angeles,6037,6037210010,34,34.04929,-118.27251,Elderly,202/8 NC,
HOBART GARDENS,1344 N Hobart Blvd,Los Angeles,CA,90027-5648,Los Angeles,6037,6037191110,28,34.09599,-118.3052,Elderly,LMSA,
MID TOWN APARTMENTS,3030 San Marino St,Los Angeles,CA,90006-1559,Los Angeles,6037,6037213320,34,34.054363,-118.295489,Family,LMSA,
MIDTOWN MANOR,528 W 50th St,Los Angeles,CA,90037-3366,Los Angeles,6037,6037232120,37,33.9973,-118.28309,Family,PD/8 Existing,
VERMONT SENIORS,3901 S Vermont Ave,Los Angeles,CA,90037-1998,Los Angeles,6037,6037231220,37,34.01531,-118.29188,Elderly,PRAC/202,
AFTON PLACE SENIOR APARTMENTS,6230 Afton Pl,Los Angeles,CA,90028-8256,Los Angeles,6037,6037190801,28,34.095,-118.3251,Family,Sec 8 SR,4% Tax Credit
MID CITY APARTMENTS,7512 S San Pedro St,Los Angeles,CA,90003-2336,Los Angeles,6037,6037239501,40,33.97204,-118.26944,Family,LMSA,
NORMANDIE VILLAS,2633 S Normandie Ave,Los Angeles,CA,90007-2174,Los Angeles,6037,6037222200,37,34.03155,-118.30061,Family,HFDA/8 NC,
WITMER MANOR APARTMENT COMPLEX,1501 Miramar St,Los Angeles,CA,90026-6056,Los Angeles,6037,6037208302,34,34.06053,-118.26326,Family,LMSA,4% Tax Credit
MONTEREY TERRACE,3800 Monterey Rd,Los Angeles,CA,90032-1459,Los Angeles,6037,6037201301,34,34.09199,-118.18695,Family,Sec 8 NC,
ST ANDREWS TERRACE,1525 N St Andrews Pl,Los Angeles,CA,90028-6713,Los Angeles,6037,6037190510,28,34.098877,-118.311694,Family,Preservation,
MIRAMAR TOWERS,2000 Miramar St,Los Angeles,CA,90057-2307,Los Angeles,6037,6037208401,34,34.06285,-118.27083,Elderly,HFDA/8 NC,
HOLLYWOOD GARDENS,5411 3/4 Lemon Grove Ave,Los Angeles,CA,90038-4060,Los Angeles,6037,6037191720,28,34.08676,-118.3111,Family,Sec 8 SR,
DORIE MILLER MANOR,945 E 120th St,Los Angeles,CA,90059-2801,Los Angeles,6037,6037241002,44,33.9238,-118.25793,Family,PD/8 Existing,
MOUNT ZION TOWERS,4827 S Central Ave,Los Angeles,CA,90011-5462,Los Angeles,6037,6037229200,40,33.99967,-118.25686,Elderly,LMSA,4% Tax Credit
HOLLYWOOD EAST APARTMENTS,4829 Lexington Ave,Los Angeles,CA,90029-1661,Los Angeles,6037,6037191203,28,34.09352,-118.29417,Family,LMSA,
HOLLYWOOD KNICKERBOCKER,1714 Ivar Ave,Los Angeles,CA,90028-5124,Los Angeles,6037,6037190201,28,34.102542,-118.327753,Elderly,LMSA,
HOLLYWOODLAND APARTMENTS,977 N Wilton Pl,Los Angeles,CA,90038-3264,Los Angeles,6037,6037191720,28,34.08823,-118.31363,Elderly or disabled,,4% Tax Credit
SWANSEA PARK APARTMENTS,1015 N Kingsley Dr,Los Angeles,CA,90029-1243,Los Angeles,6037,6037191620,28,34.08921,-118.30334,Elderly,Sec 8 SR,4% Tax Credit
NEW HOPE SENIOR VILLA,5140 S Central Ave,Los Angeles,CA,90011-4764,Los Angeles,6037,6037228710,40,33.996227,-118.256085,Elderly,PRAC/202,
HOUSTON HOMES APARTMENTS,1151 E 20th St,Los Angeles,CA,90011-1266,Los Angeles,6037,6037226001,40,34.0248,-118.25301,Family,LMSA,
VILLA DE LA ESPERANZA,1401 S Hope St,Los Angeles,CA,90015-2984,Los Angeles,6037,6037224010,34,34.03783,-118.26716,Elderly,PRAC/202,
LINCOLN HEIGHTS APARTMENTS,3333 N Mission Rd,Los Angeles,CA,90031-3160,Los Angeles,6037,6037199900,34,34.066777,-118.2054,Family,LMSA,
JEFFERSON CUNNINGHAM,2300 S Victoria Ave,Los Angeles,CA,90016-1861,Los Angeles,6037,6037218702,37,34.03423,-118.33538,Family,Sec 8 NC,
OLYMPIC PLAZA SR HSG,2605 W Olympic Blvd,Los Angeles,CA,90006-2802,Los Angeles,6037,6037213401,34,34.052628,-118.288121,Disabled,PRAC/202,
TC APARTMENTS,877 N Bunker Hill Ave,Los Angeles,CA,90012-1687,Los Angeles,6037,6037207103,34,34.064783,-118.242161,Family,HFDA/8 NC,
VILLA FLORES,1020 S Flower St,Los Angeles,CA,90015-1471,Los Angeles,6037,6037207900,34,34.04402,-118.26298,Elderly,PRAC/202,
TELACU VISTAS,4900 Via Marisol,Los Angeles,CA,90042-5526,Los Angeles,6037,6037201302,34,34.10174,-118.17938,Elderly,PRAC/202,
740 S OLIVE STREET APARTMENTS,740 S Olive St,Los Angeles,CA,90014-2616,Los Angeles,6037,6037207710,34,34.04544,-118.25608,Elderly,Sec 8 SR,4% Tax Credit
39TH PLACE APARTMENTS,1075 W 39th Pl,Los Angeles,CA,90037-1559,Los Angeles,6037,6037231220,37,34.01421,-118.29393,Family,LMSA,
ST JAMES MANOR,615 S Gramercy Pl,Los Angeles,CA,90005-3265,Los Angeles,6037,6037211704,34,34.06293,-118.31318,Elderly,202/8 NC,
HOMEWARD BOUND,1045 S Bedford St,Los Angeles,CA,90035-2163,Los Angeles,6037,6037216401,37,34.05799,-118.38068,Disabled,PRAC/811,
JESSIE L TERRY MANOR,3100 S Vermont Ave,Los Angeles,CA,90007-3044,Los Angeles,6037,6037221900,37,34.02625,-118.29087,Elderly,LMSA,9% Tax Credit
TWO WORLDS ONE APARTMENTS,809 W 23rd St,Los Angeles,CA,90007-2057,Los Angeles,6037,6037224420,37,34.03271,-118.27773,Family,LMSA,9% Tax Credit
URBAN REHAB #1,9310 S Central Ave,Los Angeles,CA,90002-2018,Los Angeles,6037,6037240700,43,33.95147,-118.2547,Family,PD/8 Existing,
KERN VILLA APARTMENTS,200 N Kern Ave,Los Angeles,CA,90022,Los Angeles,6037,6037530500,40,34.03945,-118.16339,Family,Sec 8 NC,9% Tax Credit
TELACU POINTE,3200 FLETCHER DR,Los Angeles,CA,90065,Los Angeles,6037,6037186401,34,34.116371,-118.243362,Elderly,PRAC/202,
ADAMS SENIOR HOUSING,1921 W ADAMS BLVD,Los Angeles,CA,90018,Los Angeles,6037,6037221500,37,34.032859,-118.306762,Elderly,PRAC/202,
PACE VILLA,3601 S Catalina St,Los Angeles,CA,90007-3943,Los Angeles,6037,6037222600,37,34.02299,-118.2939,Family,Sec 8 NC,
LA PRO III,230 W 88th Pl,Los Angeles,CA,90003-3652,Los Angeles,6037,6037240200,43,33.95635,-118.27671,Family,LMSA,4% Tax Credit
KILGORE MANOR,2411 S Central Ave,Los Angeles,CA,90011-1609,Los Angeles,6037,6037226420,40,34.01994,-118.25454,Elderly,LMSA,
LA HACIENDA I,2126 Cambridge St,Los Angeles,CA,90006-4209,Los Angeles,6037,6037221210,34,34.04445,-118.30333,Family,HFDA/8 NC,
ETHEL ARNOLD BRADLEY GARDENS,7850 S Normandie Ave,Los Angeles,CA,90044-2373,Los Angeles,6037,6037237800,37,33.968204,-118.299604,Family,Sec 8 NC,
FAIRFAX SENIOR CIT APARTMENTS,737 S Genesee Ave,Los Angeles,CA,90036-4544,Los Angeles,6037,6037216300,37,34.06159,-118.35942,Elderly,Sec 8 NC,
VAN NUYS APARTMENTS,210 W 7th St,Los Angeles,CA,90014-1834,Los Angeles,6037,6037207301,34,34.04444,-118.25285,Elderly,Sec 8 SR,4% Tax Credit
LA HACIENDA II,1630 S Union Ave,Los Angeles,CA,90015-3275,Los Angeles,6037,6037224200,34,34.040669,-118.279391,Family,HFDA/8 NC,
VILLA MALAGA,4704 Dozier Ave,Los Angeles,CA,90022-1300,Los Angeles,6037,6037530500,40,34.04121,-118.16413,Disabled,PRAC/811,
VILLA MARISOL,5301 Via Marisol,Los Angeles,CA,90042-4889,Los Angeles,6037,6037183702,34,34.1043,-118.18395,Elderly,HFDA/8 NC,
SILVERCREST HOLLYWOOD,5940 Carlos Ave,Los Angeles,CA,90028-5467,Los Angeles,6037,6037191000,28,34.1027,-118.3193,Elderly,PRAC/202,
LA PRO I,1011 N Cummings St,Los Angeles,CA,90033-1349,Los Angeles,6037,6037203300,34,34.05525,-118.208417,Family,LMSA,
VAN NESS TERRACE,1809 S Van Ness Ave,Los Angeles,CA,90019-6257,Los Angeles,6037,6037221302,34,34.04131,-118.31675,Family,Preservation,
DUNBAR VILLAGE,4225 S Central Ave,Los Angeles,CA,90011-3000,Los Angeles,6037,6037228320,40,34.0071,-118.25657,Family,,4% Tax Credit
ELEVENTH AVENUE APARTMENTS,6726 11th Ave,Los Angeles,CA,90043-4785,Los Angeles,6037,6037235202,37,33.97798,-118.32929,Family,,9% Tax Credit
HENDERSON HOMES,3804 Wisconsin St,Los Angeles,CA,90037-1173,Los Angeles,6037,6037231220,37,34.01653,-118.29281,Family,,9% Tax Credit
KOREAN YOUTH CENTER APARTMENTS,3987 W 7th St,Los Angeles,CA,90005-5105,Los Angeles,6037,6037212610,34,34.05997,-118.31398,Family,,9% Tax Credit
BROADCAST CENTER,7660 Beverly Blvd,Los Angeles,CA,90036-2734,Los Angeles,6037,6037214501,33,34.07603,-118.35654,,,4% Tax Credit
SUNFLOWER NORTON APARTMENTS,1242 S Norton Ave,Los Angeles,CA,90019-3382,Los Angeles,6037,6037212900,37,34.04865,-118.32322,Family,,9% Tax Credit
OLYMPIA HOTEL,1201 E 7th St,Los Angeles,CA,90021-1505,Los Angeles,6037,6037206300,34,34.03732,-118.24118,,,9% Tax Credit
VENDOME PALMS APARTMENTS,975 N Vendome St,Los Angeles,CA,90026-2860,Los Angeles,6037,6037195803,28,34.08392,-118.27462,,,4% Tax Credit
ROBINSON VILLA,3845 Wisconsin St,Los Angeles,CA,90037-1174,Los Angeles,6037,6037231220,37,34.01595,-118.2934,Family,,9% Tax Credit
SAN FELIPE HOMES,690 N Herbert Ave,Los Angeles,CA,90063-1800,Los Angeles,6037,6037530902,34,34.04464,-118.18266,Family,,9% Tax Credit
GREENVIEW VILLAGE APARTMENTS,825 Green Ave,Los Angeles,CA,90017-4324,Los Angeles,6037,6037209300,34,34.05148,-118.27132,Family,,9% Tax Credit
SHAHEEN/SHEHAB,8209 S Broadway,Los Angeles,CA,90003-2868,Los Angeles,6037,6037239701,43,33.96498,-118.27837,Family,,9% Tax Credit
BIXEL HOUSE APARTMENTS,625 S Bixel St,Los Angeles,CA,90017-2232,Los Angeles,6037,6037209200,34,34.05339,-118.2627,,,4% and 9% Tax Credit
CORONADO PLACE,671 S Coronado St,Los Angeles,CA,90057-3432,Los Angeles,6037,6037208720,34,34.05991,-118.28216,Family,,4% Tax Credit
BEVERLY CITY LIGHTS,107 S Carondelet St,Los Angeles,CA,90057-2076,Los Angeles,6037,6037208502,34,34.0684,-118.27512,Family,,9% Tax Credit
CASA BERENDO,1240 N Berendo St,Los Angeles,CA,90029-1676,Los Angeles,6037,6037191203,28,34.09425,-118.29456,Family,,9% Tax Credit
CENTRAL AVENUE VILLAGE SQUARE,1060 E 53rd St,Los Angeles,CA,90011-4656,Los Angeles,6037,6037229420,40,33.9942,-118.25709,Family,,4% Tax Credit
COLDEN OAKS,225 E Colden Ave,Los Angeles,CA,90003-4210,Los Angeles,6037,6037240600,43,33.94948,-118.27062,Family,,9% Tax Credit
CRESCENT COURT,1412 W 12th St,Los Angeles,CA,90015,Los Angeles,6037,6037210010,34,34.04526,-118.27364,Family,,9% Tax Credit
FLORENCE AVENUE VILLA,910 W Florence Ave,Los Angeles,CA,90044-5162,Los Angeles,6037,6037237710,37,33.97453,-118.28949,Family,,9% Tax Credit
CASA ESPERANZA,206 E 23rd St,Los Angeles,CA,90011-1076,Los Angeles,6037,6037224020,37,34.02644,-118.26589,Family,,9% Tax Credit
HOPE WEST APARTMENTS,1231 Wall St,Los Angeles,CA,90015-2613,Los Angeles,6037,6037226002,34,34.03453,-118.255873,Family,,9% Tax Credit
CENTRAL AVENUE VILLA,4051 S Central Ave,Los Angeles,CA,90011-2777,Los Angeles,6037,6037228310,40,34.01007,-118.25658,Family,,4% Tax Credit
CRESCENT HOTEL,617 E 5th St,Los Angeles,CA,90013-2109,Los Angeles,6037,6037206200,34,34.04349,-118.24255,,,9% Tax Credit
DUNNING APARTMENTS,5552 Carlton Way,Los Angeles,CA,90028,Los Angeles,6037,6037190510,28,34.10016,-118.31061,Family,,9% Tax Credit
MARION HOTEL,642 Crocker St,Los Angeles,CA,90021-1002,Los Angeles,6037,6037206300,34,34.04052,-118.24462,,,9% Tax Credit
MARY ANDREWS CLARK RESIDENCE,306 Loma Dr,Los Angeles,CA,90017-1148,Los Angeles,6037,6037209104,34,34.05934,-118.26556,,,9% Tax Credit
ONE WILKINS PLACE APARTMENTS,1071 E 48th St,Los Angeles,CA,90011-5400,Los Angeles,6037,6037229200,40,34.00037,-118.25694,Family,,4% Tax Credit
LEONIDE APARTMENTS,512 S Main St,Los Angeles,CA,90013-1441,Los Angeles,6037,6037207302,34,34.04634,-118.24872,,,9% Tax Credit
PARKVIEW APARTMENTS,622 S Alvarado St,Los Angeles,CA,90057-3303,Los Angeles,6037,6037208903,34,34.05828,-118.27554,,,9% Tax Credit
PRODUCE PLACE,676 S Central Ave,Los Angeles,CA,90021-1039,Los Angeles,6037,6037206300,34,34.03731,-118.24051,,,9% Tax Credit
ROHIT VILLAS,122 E 120th St,Los Angeles,CA,90061-2400,Los Angeles,6037,6037241400,44,33.92335,-118.27296,Family,,9% Tax Credit
ROSAMEL APARTMENTS,1240 Elden Ave,Los Angeles,CA,90006-3500,Los Angeles,6037,6037213402,34,34.04786,-118.28735,,,9% Tax Credit
SENATOR HOTEL,729 S Main St,Los Angeles,CA,90014-2012,Los Angeles,6037,6037207301,34,34.04369,-118.25218,,,9% Tax Credit
THE CARLTON APARTMENTS,5425 Carlton Way,Los Angeles,CA,90027-4887,Los Angeles,6037,6037190510,28,34.10084,-118.30781,Family,,9% Tax Credit
VILLA ESPERANZA,255 E 28th St,Los Angeles,CA,90011-1458,Los Angeles,6037,6037224600,40,34.0226,-118.26797,Family,,9% Tax Credit
WITMER CITY LIGHTS,319 Witmer St,Los Angeles,CA,90017-1300,Los Angeles,6037,6037209103,34,34.05858,-118.26408,Family,,9% Tax Credit
HOLLYWOOD EL CENTRO APARTMENTS,6211 DE Longpre Ave,Los Angeles,CA,90028-8255,Los Angeles,6037,6037190801,28,34.09628,-118.32402,Family,,9% Tax Credit
PARKER HOTEL,725 Witmer St,Los Angeles,CA,90017-4462,Los Angeles,6037,6037209300,34,34.05178,-118.2684,,,9% Tax Credit
COURTLAND HOTEL,520 Wall St,Los Angeles,CA,90013-2144,Los Angeles,6037,6037206300,34,34.04454,-118.24599,,,9% Tax Credit
ROBERTA STEPHENS VILLAS I + II,1035 E 27th St,Los Angeles,CA,90011-5544,Los Angeles,6037,6037226420,40,34.01826,-118.25628,Family,,9% Tax Credit
CANAAN GARDENS,641 E 27th St,Los Angeles,CA,90011-1561,Los Angeles,6037,6037226410,40,34.02117,-118.26237,Family,,9% Tax Credit
CASA HEIWA,231 E 3rd St,Los Angeles,CA,90013-1494,Los Angeles,6037,6037206200,34,34.04849,-118.24373,Family,,9% Tax Credit
SIMONE HOTEL,520 San Julian St,Los Angeles,CA,90013-1513,Los Angeles,6037,6037206300,34,34.04384,-118.2451,,,9% Tax Credit
ST MARK'S HOTEL,611 E 5th St,Los Angeles,CA,90013-2109,Los Angeles,6037,6037206200,34,34.04349,-118.24255,,,9% Tax Credit
CRESCENT VILLAGE,1709 W 8th St,Los Angeles,CA,90017-2145,Los Angeles,6037,6037209403,34,34.05325,-118.27353,Family,,9% Tax Credit
HART HOTEL,508 E 4th St,Los Angeles,CA,90013-2104,Los Angeles,6037,6037206200,34,34.0444,-118.24118,,,9% Tax Credit
LAS AMERICAS HOTEL,1205 E 6th St,Los Angeles,CA,90021-1209,Los Angeles,6037,6037206031,34,34.03825,-118.23718,,,9% Tax Credit
EDWARD HOTEL,713 E 5th St,Los Angeles,CA,90013-2110,Los Angeles,6037,6037206200,34,34.04303,-118.24182,,,9% Tax Credit
THE SANBORN HOTEL,526 S Main St,Los Angeles,CA,90013-1422,Los Angeles,6037,6037207302,34,34.04626,-118.2488,,,9% Tax Credit
FAME MANOR,3210 W Adams Blvd,Los Angeles,CA,90018-5407,Los Angeles,6037,6037218900,37,34.03181,-118.31946,Family,,9% Tax Credit
FUMBAH MANOR,832 S Lake St,Los Angeles,CA,90057-4086,Los Angeles,6037,6037209402,34,34.05483,-118.27916,Family,,9% Tax Credit
LA BREA/FRANKLIN APARTMENTS,1801 N LA Brea Ave,Los Angeles,CA,90046-8318,Los Angeles,6037,6037194101,28,34.10379,-118.34642,Family,,9% Tax Credit
ARLINGTON RODEO APARTMENTS,3804 Arlington Ave,Los Angeles,CA,90008-1985,Los Angeles,6037,6037234000,37,34.0181,-118.31814,Family,,9% Tax Credit
CASA GLORIA,1450 W Temple St,Los Angeles,CA,90026-6613,Los Angeles,6037,6037208000,34,34.06746,-118.25798,Family,,9% Tax Credit
LAS PALOMAS HOTEL,2201 E 1st St,Los Angeles,CA,90033-3989,Los Angeles,6037,6037204420,34,34.04453,-118.21139,,,9% Tax Credit
MANILA TERRACE APARTMENTS,2328 W Temple St,Los Angeles,CA,90026-4957,Los Angeles,6037,6037208501,34,34.07106,-118.2712,Family,,9% Tax Credit
MARINA APARTMENTS,722 S Coronado St,Los Angeles,CA,90057-3839,Los Angeles,6037,6037209401,34,34.05792,-118.28233,Family,,9% Tax Credit
MERCEDES APARTMENTS,727 S Carondelet St,Los Angeles,CA,90057-3993,Los Angeles,6037,6037209401,34,34.05764,-118.28189,Family,,9% Tax Credit
MIDTOWN GARDENS,400 N Vermont Ave,Los Angeles,CA,90004-3513,Los Angeles,6037,6037192700,34,34.07774,-118.29159,,,9% Tax Credit
NORBO HOTEL DEVELOPMENT,526 E 6th St,Los Angeles,CA,90021-1010,Los Angeles,6037,6037206300,34,34.04161,-118.24469,,,9% Tax Credit
PARADISE ARMS,5200 S Broadway,Los Angeles,CA,90037-3853,Los Angeles,6037,6037232800,40,33.99554,-118.27821,Family,,4% Tax Credit
PARK PLACE APARTMENTS,2500 W 4th St,Los Angeles,CA,90057-1931,Los Angeles,6037,6037208802,34,34.06407,-118.2771,Family,,9% Tax Credit
ST ANDREWS BUNGALOW COURT,1514 N St Andrews Pl,Los Angeles,CA,90028-6714,Los Angeles,6037,6037190510,28,34.09885,-118.31135,,,9% Tax Credit
VISTA ANGELINA FAMILY APARTMENTS,418 E Edgeware Rd,Los Angeles,CA,90026-5693,Los Angeles,6037,6037208000,34,34.06584,-118.2546,Family,,4% Tax Credit
VILLA DEL PUEBLO,1441 S Hope St,Los Angeles,CA,90015-2911,Los Angeles,6037,6037224010,34,34.03729,-118.26751,Family,,9% Tax Credit
WELDON HOTEL,507 Maple Ave,Los Angeles,CA,90013-1511,Los Angeles,6037,6037206300,34,34.04505,-118.24702,,,9% Tax Credit
YOUNG APARTMENTS,1621 S Grand Ave,Los Angeles,CA,90015-3565,Los Angeles,6037,6037224010,34,34.03528,-118.26706,,,9% Tax Credit
BUDLONG AVENUE APARTMENTS,2727 S Budlong Ave,Los Angeles,CA,90007-2170,Los Angeles,6037,6037222200,37,34.03036,-118.29598,Family,,9% Tax Credit
ROSSMORE HOTEL,905 E 6th St,Los Angeles,CA,90021-1017,Los Angeles,6037,6037206300,34,34.03946,-118.24056,,,9% Tax Credit
GOWER STREET APARTMENTS,1140 N Gower St,Los Angeles,CA,90038-1854,Los Angeles,6037,6037190902,28,34.092,-118.32193,,,9% Tax Credit
VILLA METROPOLITANO,1328 S Hope St,Los Angeles,CA,90015-2923,Los Angeles,6037,6037224010,34,34.03858,-118.26573,,,9% Tax Credit
HYDE PARK PLACE APARTMENTS,6323 10th Ave,Los Angeles,CA,90043-4100,Los Angeles,6037,6037234901,37,33.98226,-118.32832,Family,,9% Tax Credit
LA TOWN HOMES,2557 S Bronson Ave,Los Angeles,CA,90018-1772,Los Angeles,6037,6037218702,37,34.03311,-118.3338,Family,,9% Tax Credit
ADAMS-CONGRESS APARTMENTS,1801 W Adams Blvd,Los Angeles,CA,90018-2705,Los Angeles,6037,6037221500,37,34.0328,-118.30281,Family,,9% Tax Credit
ATHENS GLEN APARTMENTS,11515 S Budlong Ave,Los Angeles,CA,90044-1268,Los Angeles,6037,6037602801,43,33.92927,-118.29621,Family,,9% Tax Credit
BRYNVIEW TERRACE,6603 Brynhurst Ave,Los Angeles,CA,90043-4395,Los Angeles,6037,6037234902,37,33.97931,-118.33387,Family,,9% Tax Credit
CASA CARONDELET,130 S Carondelet St,Los Angeles,CA,90057-2080,Los Angeles,6037,6037208502,34,34.06814,-118.27474,Family,,9% Tax Credit
NORMANDIE SENIOR HOUSING,6301 S Normandie Ave,Los Angeles,CA,90044-2699,Los Angeles,6037,6037237402,37,33.98187,-118.30057,,,9% Tax Credit
PARKSIDE APARTMENTS,400 W 9th St,Los Angeles,CA,90015-1571,Los Angeles,6037,6037207900,34,34.04365,-118.25826,Family,,9% Tax Credit
EVERGREEN VILLAGE,420 N Evergreen Ave,Los Angeles,CA,90033-3159,Los Angeles,6037,6037203720,34,34.04399,-118.19955,Family,,9% Tax Credit
HUNTINGTON HACIENDA APARTMENTS,4648 Huntington Dr S,Los Angeles,CA,90032-1914,Los Angeles,6037,6037201401,34,34.08529,-118.18479,Family,,9% Tax Credit
LOS ANGELES CITY LIGHTS,1315 W 7th St,Los Angeles,CA,90017-2345,Los Angeles,6037,6037209102,34,34.05245,-118.26773,Family,,9% Tax Credit
SERRANO APARTMENTS,1536 N Serrano Ave,Los Angeles,CA,90027-4854,Los Angeles,6037,6037190520,28,34.09884,-118.30698,Family,,9% Tax Credit
LUISA APARTMENTS,2209 Michigan Ave,Los Angeles,CA,90033-2920,Los Angeles,6037,6037204420,34,34.04634,-118.2108,Family,,9% Tax Credit
MARTHA BRYANT MANOR,8300 S Hoover St,Los Angeles,CA,90044-4945,Los Angeles,6037,6037238320,43,33.962662,-118.286713,Family,,4% Tax Credit
MOREHOUSE APARTMENTS,1750 W Martin Luther King Jr Blvd,Los Angeles,CA,90062-1536,Los Angeles,6037,6037231500,37,34.010551,-118.31052,Family,,9% Tax Credit
UNIVERSITY PARK APARTMENTS,1221 W 29th St,Los Angeles,CA,90007-3199,Los Angeles,6037,6037221820,37,34.02847,-118.2872,Family,,9% Tax Credit
WASHINGTON COURT,12525 Washington Pl,Los Angeles,CA,90066-4883,Los Angeles,6037,6037272201,37,33.99829,-118.4328,Family,,9% Tax Credit
GRAMERCY COURT,3317 W Washington Blvd,Los Angeles,CA,90018-1251,Los Angeles,6037,6037218120,37,34.03999,-118.32017,,,9% Tax Credit
39 WEST APARTMENTS,3885 S Western Ave,Los Angeles,CA,90062-1121,Los Angeles,6037,6037231400,37,34.01496,-118.30899,,,9% Tax Credit
CAMBRIA APARTMENTS,738 S Union Ave,Los Angeles,CA,90017-2188,Los Angeles,6037,6037209403,34,34.05299,-118.27162,Family,,9% Tax Credit
CASANOVA GARDENS,433 Casanova St,Los Angeles,CA,90012-1257,Los Angeles,6037,6037980010,34,34.07195,-118.22884,Family,,9% Tax Credit
COCHRAN CITY LIGHTS,1315 S Cochran Ave,Los Angeles,CA,90019-2808,Los Angeles,6037,6037217100,37,34.05045,-118.35236,Family,,9% Tax Credit
FIGUEROA COURT APARTMENTS,9130 S Figueroa St,Los Angeles,CA,90003-3952,Los Angeles,6037,6037240300,43,33.95333,-118.28234,,,9% Tax Credit
GARLAND CITY LIGHTS,1209 W 8th St,Los Angeles,CA,90017-4438,Los Angeles,6037,6037209300,34,34.05008,-118.268,Family,,9% Tax Credit
P & P HOME FOR THE ELDERLY,1030 W 85th St,Los Angeles,CA,90044-3466,Los Angeles,6037,6037238200,37,33.96069,-118.2934,Elderly or disabled,,9% Tax Credit
PLAZA VERMONT,939 W Gage Ave,Los Angeles,CA,90044,Los Angeles,6037,6037237101,37,33.98199,-118.29004,Family,,9% Tax Credit
LOS ALTOS APARTMENTS APARTMENTS,4121 Wilshire Blvd,Los Angeles,CA,90010-3513,Los Angeles,6037,6037211701,34,34.06204,-118.31742,,,4% Tax Credit
MISSION VILLAGE TERRACE,4001 N Mission Rd,Los Angeles,CA,90032-2588,Los Angeles,6037,6037199110,34,34.07488,-118.19674,Family,,4% Tax Credit
THE BOYD HOTEL,224 Boyd St,Los Angeles,CA,90013-1406,Los Angeles,6037,6037206200,34,34.04747,-118.24489,,,9% Tax Credit
PALM VILLAGE,1011 W 91st St,Los Angeles,CA,90044-3360,Los Angeles,6037,6037600100,43,33.95466,-118.29201,Elderly or disabled,,9% Tax Credit
MAIN STREET HOUSING LP,101 W 74th St,Los Angeles,CA,90003-2066,Los Angeles,6037,6037239601,40,33.97284,-118.27393,Family,Pension Fund,9% Tax Credit
PALMER HOUSE,538 Wall St,Los Angeles,CA,90013-1551,Los Angeles,6037,6037206300,34,34.04428,-118.24623,,,9% Tax Credit
PICO GRAMERCY FAMILY HOUSING,1303 S Gramercy Pl,Los Angeles,CA,90019-4607,Los Angeles,6037,6037221304,34,34.04676,-118.31346,Family,,9% Tax Credit
235 BERENDO APARTMENTS,235 S Berendo St,Los Angeles,CA,90004-5754,Los Angeles,6037,6037211320,34,34.06984,-118.29453,,,9% Tax Credit
AVALON-EL SEGUNDO SENIOR APARTMENTS,13232 Avalon Blvd,Los Angeles,CA,90061-2290,Los Angeles,6037,6037540800,44,33.91268,-118.26516,,,9% Tax Credit
WATSON II,3939 Ursula Ave,Los Angeles,CA,90008-2145,Los Angeles,6037,6037236202,37,34.01526,-118.35274,Family,,4% Tax Credit
CASA VERDE APARTMENTS,1552 Schrader Blvd,Los Angeles,CA,90028-7213,Los Angeles,6037,6037190700,28,34.09892,-118.33237,Family,,9% Tax Credit
CHESTNUT VILLAGE,5675 York Blvd,Los Angeles,CA,90042-2550,Los Angeles,6037,6037183220,34,34.11929,-118.19419,Family,,9% Tax Credit
West A Homes,4100 Vermont Ave,Los Angeles,CA,90037-1934,Los Angeles,6037,6037231710,37,34.00972,-118.29144,Family,,9% Tax Credit
COURTLAND CITY LIGHTS,1355 N Cahuenga Blvd,Los Angeles,CA,90028-8137,Los Angeles,6037,6037190802,28,34.09587,-118.329428,Family,,9% Tax Credit
WESTLAKE CITY LIGHTS,509 S Westlake Ave,Los Angeles,CA,90057-5200,Los Angeles,6037,6037208903,34,34.06059,-118.27271,Family,,9% Tax Credit
FOX NORMANDIE APARTMENTS,849 S Normandie Ave,Los Angeles,CA,90005-2159,Los Angeles,6037,6037212420,34,34.05626,-118.30011,,,9% Tax Credit
GRANDVIEW CITY LIGHTS,831 S Grand View St,Los Angeles,CA,90057-4043,Los Angeles,6037,6037209401,34,34.05504,-118.28086,Family,,9% Tax Credit
HARBOR CITY LIGHTS,523 W 127th St,Los Angeles,CA,90044,Los Angeles,6037,6037291110,43,33.91781,-118.28444,Family,,4% Tax Credit
BRYSON FAMILY APARTMENTS,2701 Wilshire Blvd,Los Angeles,CA,90057-3244,Los Angeles,6037,6037208720,34,34.06143,-118.28254,Family,,9% Tax Credit
KENMORE APARTMENTS,1726 N Kenmore Ave,Los Angeles,CA,90027-4057,Los Angeles,6037,6037189201,28,34.10264,-118.29692,Family,,9% Tax Credit
MIRADA TERRACE APARTMENTS,5657 La Mirada Ave,Los Angeles,CA,90038-2236,Los Angeles,6037,6037190901,28,34.09411,-118.31292,Family,,9% Tax Credit
EMPRESS APARTMENTS,514 S Westlake Ave,Los Angeles,CA,90057-2967,Los Angeles,6037,6037208903,34,34.05918,-118.273,Family,,9% Tax Credit
SENDEROS,2141 Estrella Ave,Los Angeles,CA,90007-2055,Los Angeles,6037,6037224420,37,34.03224,-118.27668,Family,,9% Tax Credit
FEDORA APARTMENTS,836 Fedora St,Los Angeles,CA,90005-2166,Los Angeles,6037,6037212305,34,34.05705,-118.29752,,,9% Tax Credit
FIGUEROA OAKS,10210 S Figueroa St,Los Angeles,CA,90003-4458,Los Angeles,6037,6037240402,43,33.94333,-118.28226,Family,,9% Tax Credit
GWEN BOLDEN MANOR,1302 E 41st St,Los Angeles,CA,90011-3355,Los Angeles,6037,6037228220,40,34.00896,-118.25166,Family,,9% Tax Credit
SYCAMORE VILLAGE,523 S Rampart Blvd,Los Angeles,CA,90057-2622,Los Angeles,6037,6037208720,34,34.06324,-118.28141,Family,,9% Tax Credit
WILSHIRE COURTYARD,2848 Sunset Pl,Los Angeles,CA,90005-3940,Los Angeles,6037,6037212204,34,34.0607,-118.28508,,,9% Tax Credit
WESTERN CARTLON APARTMENTS,5443 Carlton Way,Los Angeles,CA,90027-4814,Los Angeles,6037,6037190510,28,34.10061,-118.30801,Family,,4% Tax Credit
EUGENE THOMAS MANOR,2208 S Western Ave,Los Angeles,CA,90018-1360,Los Angeles,6037,6037221500,37,34.03607,-118.30862,,,9% Tax Credit
HEAVENLY VISION SENIOR HOUSING LP,9500 S Broadway,Los Angeles,CA,90003-4053,Los Angeles,6037,6037240500,43,33.95008,-118.27806,Elderly or disabled,,9% Tax Credit
IROLO APARTMENTS,770 Irolo St,Los Angeles,CA,90005-2370,Los Angeles,6037,6037212410,34,34.05814,-118.30057,,811 PRA DEMO,9% Tax Credit
ADAMS CITY LIGHTS,4471 W Adams Blvd,Los Angeles,CA,90016-3063,Los Angeles,6037,6037218702,37,34.03265,-118.33748,Family,,9% Tax Credit
ALEGRIA,2737 W Sunset Blvd,Los Angeles,CA,90026-2181,Los Angeles,6037,6037195600,28,34.08168,-118.27144,Family,,4% Tax Credit
AMISTAD,1953 Estrella Ave,Los Angeles,CA,90007-1378,Los Angeles,6037,6037224420,37,34.03421,-118.27531,Family,,9% Tax Credit
AVALON TERRACE NICOLET,4027 Nicolet Ave,Los Angeles,CA,90008-2219,Los Angeles,6037,6037236202,37,34.01377,-118.35155,Family,,9% Tax Credit
BENTON GREEN APARTMENTS,528 N Benton Way,Los Angeles,CA,90026-3873,Los Angeles,6037,6037195802,28,34.07549,-118.27348,Family,,4% Tax Credit
BRANDON APARTMENTS,735 Hartford Ave,Los Angeles,CA,90017-4472,Los Angeles,6037,6037209300,34,34.05132,-118.26816,,,9% Tax Credit
MAYUR TOWN HOMES,5846 Carlton Way,Los Angeles,CA,90028-6679,Los Angeles,6037,6037191000,28,34.10013,-118.31749,Family,,9% Tax Credit
DEWEY HOTEL,721 S Main St,Los Angeles,CA,90014-2363,Los Angeles,6037,6037207301,34,34.04362,-118.25231,,,9% Tax Credit
DON CARLOS APARTMENTS,5226 Hollywood Blvd,Los Angeles,CA,90027-4963,Los Angeles,6037,6037190520,28,34.10165,-118.30391,Elderly or disabled,,9% Tax Credit
HOPE VILLAGE,1031 S Hope St,Los Angeles,CA,90015-1585,Los Angeles,6037,6037207900,34,34.0433,-118.26218,Family,,4% Tax Credit
LINCOLN HOTEL,549 Ceres Ave,Los Angeles,CA,90013-1716,Los Angeles,6037,6037206300,34,34.04061,-118.241,,,9% Tax Credit
MAGNOLIA CITY LIGHTS,2885 Leeward Ave,Los Angeles,CA,90005-1139,Los Angeles,6037,6037212204,34,34.05881,-118.2862,Family,,4% Tax Credit
MARYLAND APARTMENTS,1340 Maryland St,Los Angeles,CA,90017-2034,Los Angeles,6037,6037209200,34,34.05618,-118.26207,,,9% Tax Credit
SHERATON TOWN HOUSE,2961 Wilshire Blvd,Los Angeles,CA,90010,Los Angeles,6037,6037211120,34,34.06191,-118.28656,Family,,9% Tax Credit
SYCAMORE PARK APARTMENTS,250 S Avenue 50,Los Angeles,CA,90042-4449,Los Angeles,6037,6037183820,34,34.102617,-118.200456,Family,,9% Tax Credit
SALVATION ARMY WESTWOOD TRANSITIONAL VILLAGE,1341 S Sepulveda Blvd,Los Angeles,CA,90025-3481,Los Angeles,6037,6037701100,33,34.0528,-118.44918,Family,,9% Tax Credit
TOLTON COURT,2806 E Washington Blvd,Los Angeles,CA,90023-4217,Los Angeles,6037,6037205120,34,34.016929,-118.219754,Family,,9% Tax Credit
SOUTHERN HOTEL,412 E 5th St,Los Angeles,CA,90013-1561,Los Angeles,6037,6037206300,34,34.04414,-118.24469,,,9% Tax Credit
VISTA NUEVA APARTMENTS,130 S La Fayette Park Pl,Los Angeles,CA,90057-1343,Los Angeles,6037,6037208620,34,34.06922,-118.27857,,,9% Tax Credit
TOTLON/MONTCLAIR COURT,4200 Montclair St,Los Angeles,CA,90018-4809,Los Angeles,6037,6037219300,37,34.0312,-118.33171,Family,,9% Tax Credit
BARNSDALL COURT APARTMENTS,1632 N Normandie Ave,Los Angeles,CA,90027-5147,Los Angeles,6037,6037191201,28,34.10082,-118.30044,Family,,4% Tax Credit
CASA RAMPART APARTMENTS,401 S Rampart Blvd,Los Angeles,CA,90057-1717,Los Angeles,6037,6037208720,34,34.07399,-118.27425,,,9% Tax Credit
ADAMS SENIOR GARDENS,1755 W Adams Blvd,Los Angeles,CA,90018-2760,Los Angeles,6037,6037221500,37,34.03305,-118.30192,Elderly or disabled,,9% Tax Credit
PARK LANE FAMILY APARTMENTS,4508 W Martin Luther King Jr Blvd,Los Angeles,CA,90016-5965,Los Angeles,6037,6037236203,37,34.017607,-118.346908,Family,,9% Tax Credit
AMISTAD APARTMENTS,2037 Lincoln Park Ave,Los Angeles,CA,90031-2792,Los Angeles,6037,6037199120,34,34.06886,-118.2028,,,9% Tax Credit
TM CHAMBERS MANORS,2620 Menlo Ave,Los Angeles,CA,90007-6901,Los Angeles,6037,6037221810,37,34.03209,-118.28997,Elderly or disabled,,9% Tax Credit
APPLE TREE VILLAGE,9229 Sepulveda Eastway,Los Angeles,CA,90045,Los Angeles,6037,6037278001,43,33.95316,-118.3955,,,9% Tax Credit
ELYSIAN CITY LIGHTS,1370 Allison Ave,Los Angeles,CA,90026-4496,Los Angeles,6037,6037197600,34,34.07323,-118.25216,Family,,9% Tax Credit
HOLLYWOOD WESTERN APARTMENTS,1672 N Western Ave,Los Angeles,CA,90027-4853,Los Angeles,6037,6037190510,28,34.10127,-118.30916,Family,,9% Tax Credit
LA PRIMAVERA APARTMENTS,1330 S Olive St,Los Angeles,CA,90015-3051,Los Angeles,6037,6037224010,34,34.03717,-118.26338,,,9% Tax Credit
GATEWAY CITY LIGHTS,523 1/2 W El Segundo Blvd,Los Angeles,CA,90061,Los Angeles,6037,6037291110,43,33.91651,-118.28272,Family,,9% Tax Credit
GRANDVIEW NINE APARTMENTS,2300 James M Wood Blvd,Los Angeles,CA,90006-2068,Los Angeles,6037,6037209510,34,34.05427,-118.28097,Family,,4% Tax Credit
HALE-MORRIS-LEWIS SENIOR MANOR,1307 W 105th St,Los Angeles,CA,90044-1763,Los Angeles,6037,6037600202,43,33.94157,-118.29852,Elderly or disabled,,4% Tax Credit
RIVERS HOTEL,1226 E 7th St,Los Angeles,CA,90021,Los Angeles,6037,6037226002,34,34.0371,-118.24179,,,9% Tax Credit
HAPPY VALLEY CITY LIGHTS,2580 N Soto St,Los Angeles,CA,90032-1472,Los Angeles,6037,6037201401,34,34.07736,-118.19241,Family,,9% Tax Credit
SAN LUCAS SENIOR HOUSING,1221 W 7th St,Los Angeles,CA,90017-2394,Los Angeles,6037,6037209102,34,34.05187,-118.26645,Elderly or disabled,,4% Tax Credit
MEERA TOWN HOMES,740 Valencia St,Los Angeles,CA,90017-4317,Los Angeles,6037,6037209300,34,34.05151,-118.27029,Family,,9% Tax Credit
ST GEORGE HOTEL,115 E 3rd St,Los Angeles,CA,90013-1301,Los Angeles,6037,6037207302,34,34.05024,-118.24647,,,9% Tax Credit
BROWNSTONE HOTEL,425 E 5th St,Los Angeles,CA,90013,Los Angeles,6037,6037206200,34,34.04467,-118.24497,,,9% Tax Credit
ML SHEPARD MANOR SENIOR HOUISNG,2330 Santa Ana S,Los Angeles,CA,90059-1434,Los Angeles,6037,6037243100,44,33.93417,-118.23085,Elderly or disabled,,9% Tax Credit
WILSHIRE CITY LIGHTS,716 S Carondelet St,Los Angeles,CA,90057-5028,Los Angeles,6037,6037209401,34,34.05805,-118.28113,Family,,9% Tax Credit
AMISTAD PLAZA,6050 S Western Ave,Los Angeles,CA,90047-1464,Los Angeles,6037,6037237202,37,33.98444,-118.30861,Family,,4% Tax Credit
EASTSIDE VILLAGE FAMILY APARTMENTS,2250 E 111th St,Los Angeles,CA,90059-2000,Los Angeles,6037,6037243100,44,33.9342,-118.23228,Family,,9% Tax Credit
EUGENE HOTEL,558 Stanford Ave,Los Angeles,CA,90013,Los Angeles,6037,6037206300,34,34.04226,-118.24135,,,9% Tax Credit
ALEGRIA APARTMENTS,801 W 23rd St,Los Angeles,CA,90007-2056,Los Angeles,6037,6037224420,37,34.03242,-118.27755,Family,,9% Tax Credit
FAME WEST 25TH STREET,1940 W 25th St,Los Angeles,CA,90018-2181,Los Angeles,6037,6037221500,37,34.03383,-118.30681,Family,,9% Tax Credit
HOLLYVIEW SENIOR APARTMENTS,5411 Hollywood Blvd,Los Angeles,CA,90027-3424,Los Angeles,6037,6037190402,28,34.10182,-118.30742,Elderly or disabled,,9% Tax Credit
BROADWAY VISTAS,9800 S Broadway,Los Angeles,CA,90003-4168,Los Angeles,6037,6037240500,43,33.94709,-118.27778,Family,,9% Tax Credit
PLAZA DE LEON APARTMENTS,630 S Alvarado St,Los Angeles,CA,90057-3334,Los Angeles,6037,6037208903,34,34.05844,-118.27505,Family,,9% Tax Credit
CASA FIGUEROA APARTMENTS,7800 S Figueroa St,Los Angeles,CA,90003-2742,Los Angeles,6037,6037237720,37,33.96881,-118.28259,Family,,9% Tax Credit
WISCONSIN III APARTMENTS,3790 Wisconsin St,Los Angeles,CA,90007-4235,Los Angeles,6037,6037231220,37,34.01709,-118.29281,Family,,4% Tax Credit
ALISO VILLAGE APARTMENTS PHASE I,1400 Gabriel Garcia Marquez St,Los Angeles,CA,90033-2748,Los Angeles,6037,6037206032,34,34.04801,-118.22392,Family,,9% Tax Credit
BALDWIN HILLS APARTMENTS,4063 Nicolet Ave,Los Angeles,CA,90008-2267,Los Angeles,6037,6037236202,37,34.01274,-118.35164,,,4% Tax Credit
BENTLEY CITY LIGHTS,420 Witmer St,Los Angeles,CA,90017-1396,Los Angeles,6037,6037209103,34,34.05719,-118.2645,Family,,9% Tax Credit
EL CENTRO LORETTO APARTMENTS,1021 N Hoover St,Los Angeles,CA,90029-3086,Los Angeles,6037,6037191410,28,34.09016,-118.28504,Family,,4% Tax Credit
BURLINGTON CITY LIGHTS,456 S Burlington Ave,Los Angeles,CA,90057-3006,Los Angeles,6037,6037208904,34,34.05865,-118.27019,Family,,9% Tax Credit
EMERALD PARK,212 Lucas Ave,Los Angeles,CA,90026-6148,Los Angeles,6037,6037208000,34,34.06046,-118.26015,Family,,9% Tax Credit
CASTELAR APARTMENTS,601 N Hill St,Los Angeles,CA,90012,Los Angeles,6037,6037207102,34,34.05973,-118.24094,Family,,9% Tax Credit
CESAR CHAVEZ GARDENS,521 W Cesar E Chavez Ave,Los Angeles,CA,90012-2155,Los Angeles,6037,6037207102,34,34.059772,-118.241772,Family,,4% Tax Credit
LOS GIRASOLES,952 S Record Ave,Los Angeles,CA,90023-2555,Los Angeles,6037,6037531301,40,34.02303,-118.18255,Family,,9% Tax Credit
MARYLAND HEIGHTS,1337 W 5th St,Los Angeles,CA,90017-2041,Los Angeles,6037,6037209200,34,34.05577,-118.26241,Family,,9% Tax Credit
SANTEE COURT ONE,700 S Los Angeles St,Los Angeles,CA,90014-2108,Los Angeles,6037,6037226002,34,34.04238,-118.25104,,,4% Tax Credit
SKYLINE VILLAGE,444 Lucas Ave,Los Angeles,CA,90017-2050,Los Angeles,6037,6037209200,34,34.05656,-118.26254,Family,,4% Tax Credit
LAS BRISAS APARTMENTS,115 E 88th St,Los Angeles,CA,90003-3472,Los Angeles,6037,6037240200,43,33.95717,-118.27354,Family,,9% Tax Credit
SUNSET CITY LIGHTS,2014 W Sunset Blvd,Los Angeles,CA,90026,Los Angeles,6037,6037195720,28,34.07773,-118.26221,Family,,9% Tax Credit
TEMPLE CITY LIGHTS,306 N Alvarado St,Los Angeles,CA,90026-5461,Los Angeles,6037,6037208501,34,34.06928,-118.26853,Family,,9% Tax Credit
HARVARD HEIGHTS APARTMENTS HOMES,950 S Harvard Blvd,Los Angeles,CA,90006-6262,Los Angeles,6037,6037213201,34,34.054,-118.30385,Family,,9% Tax Credit
EMERALD TERRACE APARTMENTS,1345 Emerald Dr,Los Angeles,CA,90026-2136,Los Angeles,6037,6037208000,34,34.05966,-118.2602,Family,,9% Tax Credit
VERMONT CITY LIGHTS,4215 S Vermont Ave,Los Angeles,CA,90037-2492,Los Angeles,6037,6037231600,37,34.00696,-118.29163,Family,,9% Tax Credit
WEST ANGELES VILLAS,6030 Crenshaw Blvd,Los Angeles,CA,90043-3984,Los Angeles,6037,6037234902,37,33.98514,-118.33074,Elderly or disabled,,4% Tax Credit
WITMER/COLUMBIA PLACE,1304 W 7th St,Los Angeles,CA,90017-2219,Los Angeles,6037,6037209300,34,34.05228,-118.2678,Family,,9% Tax Credit
CASA SHALOM,1308 S New Hampshire Ave,Los Angeles,CA,90006-4555,Los Angeles,6037,6037221220,34,34.04717,-118.29233,Family,,4% Tax Credit
LITTLE TOKYO DEVELOPMENT,375 E 2nd St,Los Angeles,CA,90012-4239,Los Angeles,6037,6037206200,34,34.0481,-118.23974,Family,,4% Tax Credit
ALAMEDA TERRACE,11917 S Figueroa St,Los Angeles,CA,90061-1413,Los Angeles,6037,6037241300,43,33.9246,-118.28267,Family,,9% Tax Credit
L A COLORADO TERRACE,2455 Colorado Blvd,Los Angeles,CA,90041-1170,Los Angeles,6037,6037181000,34,34.14147,-118.22038,Family,,4% Tax Credit
EAST LA COMMUNITY CORP,1074 S Rowan Ave,Los Angeles,CA,90023-2454,Los Angeles,6037,6037531301,40,34.02092,-118.18723,Family,,4% Tax Credit
BROADWAY CITY LIGHTS,8000 S Broadway,Los Angeles,CA,90003-2460,Los Angeles,6037,6037239701,43,33.96691,-118.27819,Family,,9% Tax Credit
CORONITA FAMILY APARTMENTS,204 Lucas Ave,Los Angeles,CA,90026-6969,Los Angeles,6037,6037208000,34,34.06068,-118.26001,Family,,9% Tax Credit
GATEWAYS SRO HOUSING,444 N Hoover St,Los Angeles,CA,90004-2391,Los Angeles,6037,6037195903,28,34.07886,-118.28432,,,9% Tax Credit
GRAND & VENICE FAMILY HOUSING,1500 S Grand Ave,Los Angeles,CA,90015-5400,Los Angeles,6037,6037224010,34,34.03595,-118.26569,Family,,9% Tax Credit
HARVARD GLENMARY,8711 S Harvard Blvd,Los Angeles,CA,90047-3351,Los Angeles,6037,6037238400,43,33.95872,-118.30759,Elderly or disabled,,4% Tax Credit
LAGUNA SENIOR APARTMENTS,4201 W Sunset Blvd,Los Angeles,CA,90029-2149,Los Angeles,6037,6037195400,28,34.09433,-118.28183,Elderly or disabled,,4% Tax Credit
NEW TERMINAL HOTEL,901 E 7th St,Los Angeles,CA,90021-1407,Los Angeles,6037,6037206300,34,34.03906,-118.24426,,,9% Tax Credit
PASCUAL REYES TOWNHOMES,1413 Connecticut St,Los Angeles,CA,90015,Los Angeles,6037,6037210010,34,34.0472,-118.27236,Family,,9% Tax Credit
PALOMAR APARTMENTS,5473 Santa Monica Blvd,Los Angeles,CA,90029-2357,Los Angeles,6037,6037191120,28,34.09086,-118.30881,Elderly or disabled,,9% Tax Credit
PICO/GRAMERCY FAMILY APARTMENTS,3201 W Pico Blvd,Los Angeles,CA,90019,Los Angeles,6037,6037213100,34,34.04741,-118.3124,Family,,4% Tax Credit
ST ANNE'S TRANSITION HOUSING & CHILD CARE DEVELOPMENT,155 N Occidental Blvd,Los Angeles,CA,90026-4641,Los Angeles,6037,6037208610,34,34.07205,-118.27968,,,9% Tax Credit
TRIANGLE SQUARE APARTMENTS,1602 Ivar Ave,Los Angeles,CA,90028-6353,Los Angeles,6037,6037190700,28,34.10014,-118.32773,Elderly or disabled,,4% Tax Credit
TIDES SENIOR APARTMENTS,623 S Rampart Blvd,Los Angeles,CA,90057-3254,Los Angeles,6037,6037208720,34,34.0617,-118.28213,Elderly or disabled,,9% Tax Credit
VIEWS AT 270,1516 N Western Ave,Los Angeles,CA,90027-5625,Los Angeles,6037,6037190510,28,34.09862,-118.30915,Family,,4% Tax Credit
YANKEE HOTEL,501 E 7th St,Los Angeles,CA,90014-2445,Los Angeles,6037,6037206300,34,34.04133,-118.24695,,,9% Tax Credit
METROPOLITAN LOFTS,1040 S Flower St,Los Angeles,CA,90015,Los Angeles,6037,6037207900,34,34.04416,-118.26285,,,4% Tax Credit
SANTOS PLAZA APARTMENTS,3837 S Western Ave,Los Angeles,CA,90062-1295,Los Angeles,6037,6037231400,37,34.01623,-118.30923,,,9% Tax Credit
TESORO DEL VALLE,2301 Humboldt St,Los Angeles,CA,90031-3493,Los Angeles,6037,6037199000,34,34.07954,-118.21968,Family,,9% Tax Credit
CHANCELLOR,3191 W 7th St,Los Angeles,CA,90005-1684,Los Angeles,6037,6037212303,34,34.05984,-118.29502,,,4% Tax Credit
SECURITY BUILDING LOFTS,510 S Spring St,Los Angeles,CA,90013-2399,Los Angeles,6037,6037207302,34,34.04717,-118.2497,,,4% Tax Credit
MAIN STREET VISTAS,5950 S Main St,Los Angeles,CA,90003-1271,Los Angeles,6037,6037239202,40,33.98604,-118.27383,Family,,9% Tax Credit
FIGUEROA PLACE,1320 W Sunset Blvd,Los Angeles,CA,90026-3991,Los Angeles,6037,6037197600,34,34.07241,-118.25104,Family,,9% Tax Credit
BROADWAY VILLAGE APARTMENTS II,5101 S Broadway,Los Angeles,CA,90037-3871,Los Angeles,6037,6037231900,40,33.99611,-118.27878,Family,,4% Tax Credit
FLORES DEL VALLE APARTMENTS,222 N Avenue 23,Los Angeles,CA,90031,Los Angeles,6037,6037199000,34,34.078613,-118.219063,Family,,9% Tax Credit
MANSI TOWN HOMES,4520 S Figueroa St,Los Angeles,CA,90037-2678,Los Angeles,6037,6037232120,37,34.00218,-118.2823,Family,,9% Tax Credit
LORENA TERRACE APARTMENTS,611 S Lorena St,Los Angeles,CA,90023-1666,Los Angeles,6037,6037204810,34,34.03092,-118.20013,Family,,4% Tax Credit
VICTOR CLOTHING APARTMENTS,242 S Broadway,Los Angeles,CA,90012-3625,Los Angeles,6037,6037207301,34,34.05171,-118.24718,Family,,4% Tax Credit
WILSHIRE VERMONT STATION,3183 Wilshire Blvd,Los Angeles,CA,90010-1211,Los Angeles,6037,6037211120,34,34.06188,-118.29141,,,4% Tax Credit
WITMER HEIGHTS APARTMENTS HOMES,116 Witmer St,Los Angeles,CA,90026-6968,Los Angeles,6037,6037208302,34,34.06204,-118.26071,Family,,9% Tax Credit
TRI-CITY HOUSING,511 S Mariposa Ave,Los Angeles,CA,90020-2854,Los Angeles,6037,6037212102,34,34.06519,-118.29929,,,4% Tax Credit
PRESERVATION V,833 S Carondelet St,Los Angeles,CA,90057-3963,Los Angeles,6037,6037209401,34,34.056044,-118.282919,Elderly,LMSA,4% Tax Credit
ACADEMY HALL,12010 S Vermont Ave,Los Angeles,CA,90044-2975,Los Angeles,6037,6037291110,43,33.92312,-118.29121,,,4% Tax Credit
ALEXANDRIA HOUSE APARTMENTS,510 S Alexandria Ave,Los Angeles,CA,90020-5509,Los Angeles,6037,6037212102,34,34.0652,-118.29784,,,4% Tax Credit
STOVALL VILLA,535 W 41st St,Los Angeles,CA,90037-4487,Los Angeles,6037,6037231720,37,34.00974,-118.28324,Elderly,PRAC/202,
PICO VETERAN SENIOR HOUSING,10961 W Pico Blvd,Los Angeles,CA,90064-2161,Los Angeles,6037,6037267800,37,34.03879,-118.43146,Elderly,PRAC/202,
CASA LUCERNA,1025 S Kern Ave,Los Angeles,CA,90022-3041,Los Angeles,6037,6037531602,40,34.0201,-118.16644,Elderly or disabled,,4% Tax Credit
ABBEY APARTMENTS,605 S San Pedro St,Los Angeles,CA,90014,Los Angeles,6037,6037206300,34,34.0415,-118.24605,,,4% Tax Credit
BARBIZON HOTEL APARTMENTS,1927 W 6th St,Los Angeles,CA,90057-5222,Los Angeles,6037,6037208903,34,34.05868,-118.27272,Family,,4% Tax Credit
BRONSON COURTS,1227 N Bronson Ave,Los Angeles,CA,90038,Los Angeles,6037,6037190902,28,34.09378,-118.31802,Family,,9% Tax Credit
CARONDELET COURT APARTMENTS HOMES,816 S Carondelet St,Los Angeles,CA,90057-5103,Los Angeles,6037,6037209401,34,34.05607,-118.28211,Family,,9% Tax Credit
MANITOU VISTAS I,3414 Manitou Ave,Los Angeles,CA,90031-2643,Los Angeles,6037,6037199120,34,34.07191,-118.20465,Family,,9% Tax Credit
MARIPOSA PLACE APARTMENTS,5030 Santa Monica Blvd,Los Angeles,CA,90029-2412,Los Angeles,6037,6037191500,28,34.09074,-118.29893,Family,,4% Tax Credit
CLINTON FAMILY APARTMENTS - LOS ANGELES,2114 Clinton St,Los Angeles,CA,90026-4543,Los Angeles,6037,6037195710,28,34.07369,-118.26617,Family,,9% Tax Credit
CORTEZ CITY LIGHTS,1612 Cortez St,Los Angeles,CA,90026-6974,Los Angeles,6037,6037208302,34,34.06726,-118.26112,Family,,9% Tax Credit
SAN PEDRO APARTMENTS,235 S San Pedro St,Los Angeles,CA,90012-3966,Los Angeles,6037,6037206200,34,34.04891,-118.24203,Family,,4% Tax Credit
SEVEN MAPLES,2618 W 7th St,Los Angeles,CA,90057-3858,Los Angeles,6037,6037209401,34,34.05896,-118.28305,Elderly or disabled,,9% Tax Credit
THE ARDMORE,959 S Ardmore Ave,Los Angeles,CA,90006-1484,Los Angeles,6037,6037213201,34,34.05389,-118.30216,Family,,9% Tax Credit
KERNWOOD TERRACE APARTMENTS,337 S Mednik Ave,Los Angeles,CA,90022-1839,Los Angeles,6037,6037531603,40,34.0399,-118.161894,Elderly,HFDA/8 NC,
LYNDON HOTEL,413 E 7th St,Los Angeles,CA,90014-2306,Los Angeles,6037,6037206300,34,34.04188,-118.2479,,,9% Tax Credit
MIMMIM TOWN HOMES,5417 S Figueroa St,Los Angeles,CA,90037-4460,Los Angeles,6037,6037232700,37,33.99313,-118.28276,Family,,9% Tax Credit
MORGAN PLACE,7301 Crenshaw Blvd,Los Angeles,CA,90043-4968,Los Angeles,6037,6037235202,37,33.97361,-118.33095,Elderly or disabled,,4% Tax Credit
NORTHWEST GATEWAY APARTMENTS,1304 W 2nd St,Los Angeles,CA,90026-7003,Los Angeles,6037,6037208000,34,34.06089,-118.25872,,,4% Tax Credit
SICHEL FAMILY APARTMENTS,1805 Sichel St,Los Angeles,CA,90031-1284,Los Angeles,6037,6037199900,34,34.06418,-118.21318,Family,,9% Tax Credit
THE ALEXANDRIA HOTEL,501 S Spring St,Los Angeles,CA,90013-2310,Los Angeles,6037,6037207301,34,34.04744,-118.24969,,,4% Tax Credit
THE HOBART,924 S Hobart Blvd,Los Angeles,CA,90006-1480,Los Angeles,6037,6037212501,34,34.05492,-118.30494,Family,,9% Tax Credit
UNION POINT APARTMENTS,420 Union Dr,Los Angeles,CA,90017-1682,Los Angeles,6037,6037209102,34,34.05886,-118.26749,Family,,9% Tax Credit
YALE TERRACE APARTMENTS,716 Yale St,Los Angeles,CA,90012-3896,Los Angeles,6037,6037207102,34,34.0615,-118.24155,Family,,9% Tax Credit
ROSSLYN LOFTS,101 W 5th St,Los Angeles,CA,90013-1417,Los Angeles,6037,6037207302,34,34.04701,-118.24887,,,4% Tax Credit
ADAMS & CENTRAL MIXED USE DEVELOPMENT,1011 E Adams Blvd,Los Angeles,CA,90011-5926,Los Angeles,6037,6037226420,40,34.01915,-118.25561,Family,,4% Tax Credit
IMANI FE APARTMENTS,10424 S Central Ave,Los Angeles,CA,90002-3300,Los Angeles,6037,6037242000,43,33.94136,-118.25379,Family,,9% Tax Credit
RITTENHOUSE SQUARE,1100 E 33rd St,Los Angeles,CA,90011-2969,Los Angeles,6037,6037228210,40,34.01351,-118.25649,Elderly or disabled,,9% Tax Credit
TOWNE SQUARE,11650 Towne Ave,Los Angeles,CA,90061-2957,Los Angeles,6037,6037241001,43,33.92872,-118.26633,,,9% Tax Credit
INNES HEIGHTS APARTMENTS,1245 Innes Ave,Los Angeles,CA,90026-1798,Los Angeles,6037,6037197700,34,34.07167,-118.2498,,,9% Tax Credit
CENTRAL VILLAGE APARTMENTS,1315 E 21st St,Los Angeles,CA,90011-1247,Los Angeles,6037,6037227010,40,34.02227,-118.25198,Family,,4% Tax Credit
MIRAMAR CITY LIGHTS,1417 W 3rd St,Los Angeles,CA,90017-1496,Los Angeles,6037,6037208302,34,34.05859,-118.26207,Family,,9% Tax Credit
FULLER AVENUE SR HOUSING,1627 N Fuller Ave,Los Angeles,CA,90046-3568,Los Angeles,6037,6037189905,28,34.100772,-118.349297,Elderly,202/8 NC,
BRICKER,1671 N Western Ave,Los Angeles,CA,90027-4861,Los Angeles,6037,6037190510,28,34.10121,-118.30957,Elderly or disabled,,9% Tax Credit
HOLLYWOOD BUNGALOW COURTS,1721 N Kingsley Dr,Los Angeles,CA,90027-3701,Los Angeles,6037,6037190401,28,34.10259,-118.30359,,,4% Tax Credit
MIRAMAR VILLAGE,240 S Westlake Ave,Los Angeles,CA,90057-2400,Los Angeles,6037,6037208401,34,34.06402,-118.26997,Family,,9% Tax Credit
ROSA PARKS VILLAS,2507 S Bronson Ave,Los Angeles,CA,90018-1973,Los Angeles,6037,6037218702,37,34.03443,-118.33281,Elderly or disabled,,9% Tax Credit
ANGELUS PLAZA,255 S Hill St,Los Angeles,CA,90012-3500,Los Angeles,6037,6037207502,34,34.05208,-118.24956,Elderly,Sec 8 NC,4% Tax Credit
ROSEWOOD GARDENS APARTMENTS,504 N Berendo St,Los Angeles,CA,90004-3054,Los Angeles,6037,6037192610,34,34.0791,-118.29395,Elderly or disabled,,9% Tax Credit
BONNIE BRAE APARTMENTS HOMES,505 S Bonnie Brae St,Los Angeles,CA,90057-5228,Los Angeles,6037,6037208903,34,34.05909,-118.27211,Family,,4% Tax Credit
LA BREA GARDENS,5120 Exposition Blvd,Los Angeles,CA,90016-5288,Los Angeles,6037,6037220100,37,34.02466,-118.35605,Family,LMSA,4% Tax Credit
CHARLES COBB APARTMENTS,521 S San Pedro St,Los Angeles,CA,90013-2148,Los Angeles,6037,6037206300,34,34.04384,-118.24423,,,4% Tax Credit
FIGUEROA SENIOR HOUSING,5503 S Figueroa St,Los Angeles,CA,90037-4069,Los Angeles,6037,6037232700,37,33.99235,-118.28275,Elderly or disabled,,4% Tax Credit
HOOVER SENIORS,6212 S Hoover St,Los Angeles,CA,90044-5480,Los Angeles,6037,6037237101,37,33.982777,-118.286697,Elderly,PRAC/202,
ARDMORE CITY LIGHTS,737 S Ardmore Ave,Los Angeles,CA,90005,Los Angeles,6037,6037212410,34,34.05897,-118.30183,Family,,9% Tax Credit
BROADWAY VILLAGE APARTMENTS I,254 W 78th St,Los Angeles,CA,90003-2450,Los Angeles,6037,6037239602,40,33.96877,-118.27824,Family,,9% Tax Credit
BROADWAY PLAZA APARTMENTS,901 S Broadway,Los Angeles,CA,90015-2085,Los Angeles,6037,6037207900,34,34.04235,-118.25653,,,4% Tax Credit
NORTH HOLLYWOOD ACCESSIBLE APARTMENTS,12145 BURBANK BLVD,Los Angeles,CA,91607,Los Angeles,6037,6037123800,29,34.172321,-118.397994,Disabled,PRAC/811,
ALISO VILLAGE APARTMENTS PHASE II,205 E Elmyra St,Los Angeles,CA,90012-1817,Los Angeles,6037,6037206010,34,34.050227,-118.210831,Family,,9% Tax Credit
STOCKER ST/54TH ST/VICTORIA MANOR APARTMENTS,STOCKER ST,Los Angeles,CA,90043,Los Angeles,6037,6037703200,37,33.991972,-118.337983,Family,,9% Tax Credit
LEEWARD APARTMENTS,2911 Leeward Ave,Los Angeles,CA,90005-5305,Los Angeles,6037,6037212204,34,34.059049,-118.287111,,,4% Tax Credit
SOMERVILE APARTMENTS PHASES I & II,1068 E 42nd Pl,Los Angeles,CA,90011-3095,Los Angeles,6037,6037228600,40,34.00656,-118.25649,Family,,9% Tax Credit
MILAN TOWN HOMES,10006 S Broadway,Los Angeles,CA,90003-5500,Los Angeles,6037,6037240500,43,33.945259,-118.277769,Family,,9% Tax Credit
LAS MARGARITAS APARTMENTS,115 N Soto St,Los Angeles,CA,90033-2932,Los Angeles,6037,6037204420,34,34.044353,-118.209828,Family,,9% Tax Credit
CORONADO PLAZA,2614 W 7th St,Los Angeles,CA,90057-3640,Los Angeles,6037,6037209401,34,34.058619,-118.282703,Family,,9% Tax Credit
CUATRO VIENTOS,5331 Huntington Dr N,Los Angeles,CA,90032-1871,Los Angeles,6037,6037201120,34,34.091219,-118.164585,Family,,9% Tax Credit
EPWORTH APARTMENTS,6525 S Normandie Ave,Los Angeles,CA,90044-2662,Los Angeles,6037,6037237402,37,33.980044,-118.300576,,,9% Tax Credit
CROSSINGS ON 29TH STREET,828 E 29th St,Los Angeles,CA,90011-6010,Los Angeles,6037,6037226700,40,34.017346,-118.260393,Family,,9% Tax Credit
MENLO PARK,831 W 70th St,Los Angeles,CA,90044-5156,Los Angeles,6037,6037237500,37,33.976771,-118.287709,Family,,9% Tax Credit
MAYA TOWN HOMES,306 W 120th St,Los Angeles,CA,90061,Los Angeles,6037,6037241400,44,33.92362,-118.27845,Family,,9% Tax Credit
LORENA HEIGHTS APARTMENTS,3327 Sabina St,Los Angeles,CA,90023,Los Angeles,6037,6037204810,34,34.00125,-118.18261,Family,,9% Tax Credit
WADSWORTH PARK APARTMENTS,1033 E 43rd St,Los Angeles,CA,90011,Los Angeles,6037,6037228600,40,34.006,-118.25754,Family,Sec 8 NC,4% and 9% Tax Credit
MOSAIC APARTMENTS,1521 W Pico Blvd,Los Angeles,CA,90015,Los Angeles,6037,6037210010,34,34.04468,-118.27585,Family,,9% Tax Credit
ANDALUCIA HEIGHTS,458 Hartford Ave,Los Angeles,CA,90017,Los Angeles,6037,6037209103,34,34.05656,-118.26374,Family,,9% Tax Credit
JUANITA VILLAS,335 N Juanita Ave,Los Angeles,CA,90004,Los Angeles,6037,6037192700,34,34.07744,-118.29084,,,9% Tax Credit
GLASSELL PARK COMMUNITY HOUSING,3000 Verdugo Rd,Los Angeles,CA,90065-2181,Los Angeles,6037,6037186404,34,34.105417,-118.237188,Family,,9% Tax Credit
LAS ALTURAS RHF SENIOR HOUSING,3525 WHITTIER BLVD,Los Angeles,CA,90023,Los Angeles,6037,6037204910,34,34.026458,-118.19754,Elderly,PRAC/811,
FORD APARTMENTS,1000 E 7th St,Los Angeles,CA,90021,Los Angeles,6037,6037226002,34,34.0386,-118.24392,,,4% and 9% Tax Credit
BROADWOOD TERRACE,5005 S Main St,Los Angeles,CA,90037-4601,Los Angeles,6037,6037231900,40,33.996992,-118.274299,Disabled,PRAC/202,9% Tax Credit
MONTECITO APARTMENTS,6650 Franklin Ave,Los Angeles,CA,90028-4789,Los Angeles,6037,6037190202,28,34.104865,-118.335151,Elderly,,4% Tax Credit
28TH ST YMCA RESIDENCES,1006 E 28th St,Los Angeles,CA,90011-5951,Los Angeles,6037,6037226700,40,34.017093,-118.257375,,,9% Tax Credit
LA PRO II APARTMENTS,10311 S Western Ave,Los Angeles,CA,90047-4290,Los Angeles,6037,6037238000,43,33.942516,-118.309381,,,9% Tax Credit
MY TOWN HOMES,12015 S Figueroa St,Los Angeles,CA,90061-1336,Los Angeles,6037,6037291110,43,33.923136,-118.283123,Family,,9% Tax Credit
MENLO FAMILY HOUSING,1230 Menlo Ave,Los Angeles,CA,90006-3593,Los Angeles,6037,6037213402,34,34.047969,-118.290274,Family,,4% Tax Credit
PWC FAMILY HOUSING,153 Glendale Blvd,Los Angeles,CA,90026-7090,Los Angeles,6037,6037208302,34,34.063481,-118.260197,Family,,9% Tax Credit
THE GORDON,1555 Gordon St,Los Angeles,CA,90028-3306,Los Angeles,6037,6037191000,28,34.099464,-118.31992,Family,,9% Tax Credit
BONNIE BRAE VILLAGE,208 S Bonnie Brae St,Los Angeles,CA,90057-5508,Los Angeles,6037,6037208401,34,34.06409,-118.26862,Elderly or disabled,,4% Tax Credit
JEFFERSON BOULEVARD & FIFTH AVENUE APARTMENTS,2401 W Jefferson Blvd,Los Angeles,CA,90018-3766,Los Angeles,6037,6037219010,37,34.02587,-118.32155,Family,,9% Tax Credit
ASBURY APARTMENTS,2501 W 6th St,Los Angeles,CA,90057-3107,Los Angeles,6037,6037208802,34,34.06172,-118.27894,,,4% Tax Credit
FAR EAST BUILDING,347 E 1st St,Los Angeles,CA,90012-3901,Los Angeles,6037,6037206200,34,34.049737,-118.239461,Elderly or disabled,,4% Tax Credit
BUCKINGHAM SENIOR APARTMENTS,4020 Buckingham Rd,Los Angeles,CA,90008-2369,Los Angeles,6037,6037236100,37,34.013744,-118.342118,Elderly or disabled,,4% Tax Credit
WOODS FAMILY,5051 E 3rd St,Los Angeles,CA,90022-2059,Los Angeles,6037,6037530400,40,34.033694,-118.156837,Family,,9% Tax Credit
SUNRISE APARTMENTS,5111 S Main St,Los Angeles,CA,90037-3839,Los Angeles,6037,6037231900,40,33.996103,-118.274323,Elderly or disabled,,9% Tax Credit
RENATO APARTMENTS,527 San Julian St,Los Angeles,CA,90013,Los Angeles,6037,6037206300,34,34.04384,-118.24556,,,9% Tax Credit
NORMANDIE TERRACE,540 S Normandie Ave,Los Angeles,CA,90020-3012,Los Angeles,6037,6037212102,34,34.064108,-118.29983,Family,,9% Tax Credit
METRO AT HOLLYWOOD,5555 Hollywood Blvd,Los Angeles,CA,90028-6814,Los Angeles,6037,6037190301,28,34.101915,-118.311146,Elderly or disabled,,4% Tax Credit
RAINBOW APARTMENTS,635 S San Pedro St,Los Angeles,CA,90014,Los Angeles,6037,6037206300,34,34.04152,-118.24638,,,9% Tax Credit
MCCOY PLAZA A,9305 Firth Blvd,Los Angeles,CA,90002,Los Angeles,6037,6037242300,44,33.9519,-118.24763,Family,,9% Tax Credit
CORONEL VILLAGE,935 S Boyle Ave,Los Angeles,CA,90023-1275,Los Angeles,6037,6037206050,34,34.035263,-118.219434,Elderly or disabled,,4% Tax Credit
HARVARD CIRCLE,952 N Harvard Blvd,Los Angeles,CA,90029-3579,Los Angeles,6037,6037191620,28,34.087943,-118.303807,Family,,9% Tax Credit
STEP UP ON VINE,1057 Vine St,Los Angeles,CA,90038-2744,Los Angeles,6037,6037191810,28,34.090097,-118.32686,,,9% Tax Credit
DEL REY SQUARE SENIOR HOUSING,11976 Culver Blvd,Los Angeles,CA,90066-7441,Los Angeles,6037,6037275200,37,33.995052,-118.417244,Elderly or disabled,,4% Tax Credit
ENCANTO COURT,1345 W 105th St,Los Angeles,CA,90044-1790,Los Angeles,6037,6037600202,43,33.941577,-118.299854,Elderly or disabled,,4% Tax Credit
HOLLYWOOD & VINE APARTMENTS,1600 Vine St,Los Angeles,CA,90028-8818,Los Angeles,6037,6037190700,28,34.099991,-118.326271,Family,,4% Tax Credit
THE VILLAS AT GOWER,1726 N Gower St,Los Angeles,CA,90028-5352,Los Angeles,6037,6037191000,28,34.10266,-118.321956,,,9% Tax Credit
BOYLE HOTEL APARTMENTS,1781 E 1st St,Los Angeles,CA,90033-3469,Los Angeles,6037,6037206032,34,34.047521,-118.220467,Family,,9% Tax Credit
DOLORES FRANCES APARTMENTS,1809 W 11th St,Los Angeles,CA,90006-3735,Los Angeles,6037,6037209520,34,34.049064,-118.2777,,,4% Tax Credit
CENTRAL CITY FAMILY HOUSING,1810 W 12th St,Los Angeles,CA,90006-4180,Los Angeles,6037,6037209820,34,34.047266,-118.278998,Family,,4% Tax Credit
HDR PORTFOLIOS,2747 Newell St,Los Angeles,CA,90039-3815,Los Angeles,6037,6037187200,28,34.101081,-118.245157,Family,,4% Tax Credit
JEFFERSON PARK TERRACE,3023 S Western Ave,Los Angeles,CA,90018-3458,Los Angeles,6037,6037222001,37,34.026943,-118.309261,Family,,9% Tax Credit
MIJA TOWNHOMES,4501 S Figueroa St,Los Angeles,CA,90037-4540,Los Angeles,6037,6037232120,37,34.002614,-118.283108,Family,,9% Tax Credit
NEW GENESIS APARTMENTS,458 S Main St,Los Angeles,CA,90013-1320,Los Angeles,6037,6037207302,34,34.046791,-118.247995,,,9% Tax Credit
36TH ST & BROADWAY APARTMENTS,4775 S Broadway,Los Angeles,CA,90037-3200,Los Angeles,6037,6037231900,40,33.999403,-118.278731,,,4% Tax Credit
VERMONT AVENUE APARTMENTS,4915 S Vermont Ave,Los Angeles,CA,90037-4477,Los Angeles,6037,6037232300,37,33.998085,-118.291893,Family,,9% Tax Credit
LINDA VISTA SENIOR APARTMENTS,630 S St Louis St,Los Angeles,CA,90023,Los Angeles,6037,6037204600,34,34.03861,-118.21754,Elderly or disabled,,4% Tax Credit
MACARTHUR PARK APARTMENTS PHASE A,681 S Bonnie Brae St,Los Angeles,CA,90057-3735,Los Angeles,6037,6037208902,34,34.056167,-118.274694,Family,,4% Tax Credit
CHINATOWN METRO APARTMENTS,808 N Spring St,Los Angeles,CA,90012-4405,Los Angeles,6037,6037207103,34,34.062068,-118.236556,Elderly or disabled,,4% Tax Credit
YOUNG BURLINGTON APARTMENTS,820 S Burlington Ave,Los Angeles,CA,90057-4827,Los Angeles,6037,6037209403,34,34.052664,-118.274567,,,9% Tax Credit
WESTMINSTER PARK PLAZA APARTMENTS,9300 Maie Ave,Los Angeles,CA,90002-2384,Los Angeles,6037,6037242300,44,33.951897,-118.244012,Family,,4% Tax Credit
THE SERRANO,979 S Serrano Ave,Los Angeles,CA,90006-1175,Los Angeles,6037,6037213201,34,34.053303,-118.306654,Family,,9% Tax Credit
NEW HAMPSHIRE FAMILY HOUSING,1053 S New Hampshire Ave,Los Angeles,CA,90006-2121,Los Angeles,6037,6037213320,34,34.051367,-118.292967,Family,,9% Tax Credit
NEW PERSHING APARTMENTS,108 E 5th St,Los Angeles,CA,90013-1928,Los Angeles,6037,6037207302,34,34.04632,-118.248425,Elderly or disabled,,9% Tax Credit
ROSSLYN HOTEL APARTMENTS,112 E 5th St,Los Angeles,CA,90013-1416,Los Angeles,6037,6037207302,34,34.046285,-118.24812,Elderly or disabled,,9% Tax Credit
VERMONT VILLAS,16304 S VERMONT AVE,Los Angeles,CA,90247,Los Angeles,6037,6037291210,43,33.883354,-118.291122,Elderly or disabled,,9% Tax Credit
NAVY VILLAGE (AKA BLUE BUTTERFLY VILLAGE),2213 BLUE BUTTERFLY WAY,Los Angeles,CA,90732,Los Angeles,6037,6037670326,33,33.777229,-118.301048,Elderly or disabled,,9% Tax Credit
PARCEL M-GRAND AVENUE APARTMENTS,225 S Grand Ave Apt 410,Los Angeles,CA,90012-4423,Los Angeles,6037,6037207502,34,34.054302,-118.250178,,,4% Tax Credit
TEAGUE TERRACE (AKA EAGLE VISTA),4260 Eagle Rock Blvd,Los Angeles,CA,90065-4480,Los Angeles,6037,6037186201,34,34.122191,-118.223134,Elderly or disabled,,4% Tax Credit
HOLLENBECK TERRACE APARTMENTS,610 S St Louis St,Los Angeles,CA,90023-1298,Los Angeles,6037,6037204600,34,34.03824,-118.21723,Elderly or disabled,,9% Tax Credit
VILLA NUEVA,658 S Ferris Ave,Los Angeles,CA,90022-2556,Los Angeles,6037,6037531604,40,34.02431,-118.1622,,,4% Tax Credit
LAUREL VILLAGE,9700 LAUREL CANYON BLVD,Los Angeles,CA,91331,Los Angeles,6037,6037104821,29,34.245563,-118.417877,,,4% Tax Credit
BURLINGTON FAMILY APARTMENTS,415 S Burlington Ave,Los Angeles,CA,90057-3268,Los Angeles,6037,6037208904,34,34.060245,-118.269935,Elderly or disabled,,9% Tax Credit
BROADWAY VILLAS,9413 S Spring St,Los Angeles,CA,90003-4066,Los Angeles,6037,6037240500,43,33.95049,-118.27736,Elderly or disabled,,4% Tax Credit
THE BERENDOS,226 N Berendo St,Los Angeles,CA,90004-4704,Los Angeles,6037,6037211202,34,34.075302,-118.293825,Elderly or disabled,,4% Tax Credit
LDK SENIOR APARTMENTS,900 Crenshaw Blvd,Los Angeles,CA,90019-1978,Los Angeles,6037,6037212702,34,34.056101,-118.321793,Elderly or disabled,,4% Tax Credit
PALOMA TERRACE,5000 S Main St,Los Angeles,CA,90037-4549,Los Angeles,6037,6037229300,40,33.997287,-118.273786,Family,,9% Tax Credit
GATEWAY APARTMENTS,13368 BEACH AVE,Los Angeles,CA,90292,Los Angeles,6037,6037275400,37,33.991531,-118.44345,Elderly or disabled,,9% Tax Credit
THE PARK PLAZA,960 W 62nd Pl,Los Angeles,CA,90044-5474,Los Angeles,6037,6037237101,37,33.982418,-118.290773,Family,,4% Tax Credit
LAS ALTURAS,3535 Whittier Blvd,Los Angeles,CA,90023-1763,Los Angeles,6037,6037204910,34,34.026494,-118.197164,Elderly or disabled,,9% Tax Credit
BESWICK SENIOR APARTMENTS,3553 Beswick St,Los Angeles,CA,90023-3053,Los Angeles,6037,6037204920,34,34.022339,-118.199392,Elderly or disabled,,9% Tax Credit
GATEWAYS APARTMENTS,505 S San Pedro St,Los Angeles,CA,90013-2594,Los Angeles,6037,6037206300,34,34.044002,-118.244449,,,9% Tax Credit
TERRACINA APARTMENTS,1226 W Imperial Hwy,Los Angeles,CA,90044-1355,Los Angeles,6037,6037600304,43,33.930441,-118.296182,Family,,9% Tax Credit
CONCORD APARTMENTS,1801 N Alexandria Ave,Los Angeles,CA,90027-4031,Los Angeles,6037,6037189201,28,34.103645,-118.298694,Elderly or disabled,,4% Tax Credit
LOTUS GARDEN,719 Yale St,Los Angeles,CA,90012-3763,Los Angeles,6037,6037207102,34,34.061866,-118.241929,Family,,9% Tax Credit
AVALON APARTMENTS,13218 Avalon Blvd,Los Angeles,CA,90061-2360,Los Angeles,6037,6037540800,44,33.912176,-118.264276,Elderly or disabled,,9% Tax Credit
VERMONT MANZANITA,1225 S Vermont Ave,Los Angeles,CA,90006-2729,Los Angeles,6037,6037213320,34,34.04832,-118.29192,Family,,9% Tax Credit
THE WHITTIER,3555 Whittier Blvd,Los Angeles,CA,90023-1758,Los Angeles,6037,6037204910,34,34.026228,-118.19656,Family,,9% Tax Credit
PLAYA SENIOR AFFORDABLE HOUSING,12481 W Fielding Cir Apt 122,Los Angeles,CA,90094-2935,Los Angeles,6037,6037275602,43,33.978922,-118.411837,Elderly or disabled,,9% Tax Credit
SLAUSON STATION APARTMENTS,1717 E 61st St,Los Angeles,CA,90001-1400,Los Angeles,6037,6037532700,40,33.985006,-118.242804,Family,,4% Tax Credit
TAYLOR YARD APARTMENTS,1311 N San Fernando Rd,Los Angeles,CA,90065-1296,Los Angeles,6037,6037187102,34,34.093878,-118.230637,Family,,4% Tax Credit
CRENSHAW FAMILY APARTMENTS,5110 Crenshaw Blvd,Los Angeles,CA,90043-1874,Los Angeles,6037,6037234501,37,33.99621,-118.330235,Family,,9% Tax Credit
RIO VISTA APARTMENTS,1515 N San Fernando Rd,Los Angeles,CA,90065-1297,Los Angeles,6037,6037187102,34,34.099931,-118.237491,Family,,9% Tax Credit
PROFESSIONAL HOUSING DEVELOPMENT APARTMENTS,1020 S Kingsley Dr,Los Angeles,CA,90006-2476,Los Angeles,6037,6037213201,34,34.05224,-118.30302,Family,LMSA,4% and 9% Tax Credit
PRESERVATION IV,1045 W 18th St,Los Angeles,CA,90015-3356,Los Angeles,6037,6037224200,34,34.03918,-118.27943,Family,LMSA,4% Tax Credit
CAROLINE SEVERANCE MANOR,2927 Francis Ave,Los Angeles,CA,90005-1766,Los Angeles,6037,6037212202,34,34.05694,-118.28974,,,9% Tax Credit
STEVENSON MANOR,1230 Cole Ave,Los Angeles,CA,90038-1555,Los Angeles,6037,6037190802,28,34.09345,-118.32978,Elderly,Sec 8 NC,4% Tax Credit
UNIVERSITY GARDENS APARTMENTS,1250 W Jefferson Blvd,Los Angeles,CA,90007-2924,Los Angeles,6037,6037222600,37,34.02541,-118.29309,Family,PD/8 Existing,4% Tax Credit
SOUTH BAY VILLA,13111 S San Pedro St,Los Angeles,CA,90061-2760,Los Angeles,6037,6037540902,44,33.91339,-118.26994,Family,Sec 8 NC,9% Tax Credit
MISSION PLAZA,2218 Parkside Ave,Los Angeles,CA,90031-2935,Los Angeles,6037,6037199120,34,34.070753,-118.200022,Family,Preservation,9% Tax Credit
LA PRO APARTMENTS,249 N Juanita Ave,Los Angeles,CA,90004,Los Angeles,6037,6037211122,34,34.07537,-118.29052,,,4% Tax Credit
ST ANDREWS ARMS,1511 S St Andrews Pl,Los Angeles,CA,90019-4851,Los Angeles,6037,6037221304,34,34.04517,-118.31167,Family,Preservation,9% Tax Credit
CASA DE LAS HERMANITAS,2801 E 2nd St,Los Angeles,CA,90033-4144,Los Angeles,6037,6037204300,34,34.04008,-118.20589,Elderly,HFDA/8 NC,4% Tax Credit
IMPERIAL HIGHWAY APARTMENTS,1746 E 117th St,Los Angeles,CA,90059-2556,Los Angeles,6037,6037540700,44,33.929784,-118.244403,Family,PD/8 SR,4% Tax Credit
WASHINGTON COURT APARTMENTS,1717 E 103rd St,Los Angeles,CA,90002-2931,Los Angeles,6037,6037242200,44,33.94399,-118.24201,Family,LMSA,4% Tax Credit
TRES LOMAS APARTMENTS,4343 Toland Way,Los Angeles,CA,90041-3455,Los Angeles,6037,6037186201,34,34.12217,-118.2213,Elderly,Sec 8 NC,4% Tax Credit
CURTIS JOHNSON APARTMENTS,897 W Vernon Ave,Los Angeles,CA,90037-3037,Los Angeles,6037,6037231710,37,34.00397,-118.289007,Family,LMSA,4% Tax Credit
SONYA GARDENS,8621 Denver Ave,Los Angeles,CA,90044-5751,Los Angeles,6037,6037240300,43,33.95973,-118.28396,Family,LMSA,9% Tax Credit
DELTA APARTMENTS,825 Forest Ave,Los Angeles,CA,90033-2601,Los Angeles,6037,6037203710,34,34.04962,-118.1988,Family,LMSA,4% Tax Credit
ARGYLE APARTMENTS,1600 N Western Ave,Los Angeles,CA,90027-4831,Los Angeles,6037,6037190510,28,34.100012,-118.308828,Family,,9% Tax Credit
RIO VISTA VILLAGE LIMITED PARTNERSHIP,1310 Rio Vista Ave,Los Angeles,CA,90023-2692,Los Angeles,6037,6037206050,34,34.0263,-118.22182,Family,Pension Fund,9% Tax Credit
PRESERVATION III,6427 S Hoover St,Los Angeles,CA,90044-5355,Los Angeles,6037,6037237500,37,33.98049,-118.28732,Family,LMSA,4% Tax Credit
5400 HOLLYWOOD FAMILY APARTMENTS,5400 Hollywood Blvd,Los Angeles,CA,90027-3406,Los Angeles,6037,6037190510,28,34.101341,-118.307329,Elderly or disabled,,9% Tax Credit
PANAMA HOTEL APARTMENTS,403 E 5th St,Los Angeles,CA,90013-1507,Los Angeles,6037,6037206200,34,34.044874,-118.244596,,,9% Tax Credit
SELMA COMMUNITY HOUSING,1605 N Cherokee Ave,Los Angeles,CA,90028-6234,Los Angeles,6037,6037190700,28,34.099897,-118.335317,Family,,9% Tax Credit
HCHC RECAP I,1924 Argyle Ave,Los Angeles,CA,90068-3967,Los Angeles,6037,6037189500,28,34.106054,-118.324853,Family,,4% Tax Credit
MARMION WAY APARTMENTS,3500 Marmion Way,Los Angeles,CA,90065,Los Angeles,6037,6037199000,34,34.086982,-118.213805,,,9% Tax Credit
MIRAGE TOWN HOMES,5221 S WERN AVE,Los Angeles,CA,90062,Los Angeles,6037,6037232500,37,33.994567,-118.309135,Family,,9% Tax Credit
SILVER STAR APARTMENTS (FKA WEST VILLAS),6558 West Blvd,Los Angeles,CA,90043-4300,Los Angeles,6037,6037234902,37,33.979642,-118.335086,Family,,9% Tax Credit
THE PASEO AT CALIFORNIAN,1901 W 6th St,Los Angeles,CA,90057-3538,Los Angeles,6037,6037208903,34,34.058696,-118.272618,Elderly or disabled,,4% Tax Credit
PAUL WILLIAMS APARTMENTS,1010 W Jefferson Blvd Ste 1,Los Angeles,CA,90089-0251,Los Angeles,6037,6037222700,37,34.025038,-118.287367,Family,,4% and 9% Tax Credit
PATH METRO VILLAS,345 N Westmoreland Ave,Los Angeles,CA,90004-3570,Los Angeles,6037,6037192700,34,34.0761,-118.3031,Elderly or disabled,,4% Tax Credit
SANTA CECILIA APARTMENTS,117 S Boyle Ave,Los Angeles,CA,90033-3457,Los Angeles,6037,6037206032,34,34.046726,-118.220221,Family,,9% Tax Credit
MAGNOLIA ON LAKE,2220 E 2nd St,Los Angeles,CA,90033-3924,Los Angeles,6037,6037204420,34,34.043271,-118.212904,Family,,9% Tax Credit
STAR APARTMENTS,240 E 6th St,Los Angeles,CA,90014-2177,Los Angeles,6037,6037206300,34,34.043471,-118.247781,,,9% Tax Credit
KNOB HILL APARTMENTS,2403 W 4th St,Los Angeles,CA,90057-2247,Los Angeles,6037,6037208802,34,34.06418,-118.276474,,,9% Tax Credit
KING 1101,1101 W Martin Luther King Jr Blvd,Los Angeles,CA,90037-4401,Los Angeles,6037,6037231220,37,34.011246,-118.294281,,,9% Tax Credit
ATHENS VISTAS,1300 W 105th St,Los Angeles,CA,90044-1872,Los Angeles,6037,6037600202,43,33.940903,-118.298286,Elderly or disabled,,9% Tax Credit
EL SEGUNDO BOULEVARD APARTMENTS,535 W El Segundo Blvd,Los Angeles,CA,90061-1266,Los Angeles,6037,6037291110,43,33.916687,-118.284607,,,4% Tax Credit
127TH STREET APARTMENTS,550 W 127th St,Los Angeles,CA,90044-3977,Los Angeles,6037,6037291110,43,33.917476,-118.283781,,,4% Tax Credit
JAMES WOOD APARTMENTS,1405 James M Wood Blvd,Los Angeles,CA,90015-1280,Los Angeles,6037,6037209300,34,34.04944,-118.26983,Family,,4% Tax Credit
NEW HAMPSHIRE APARTMENTS,1509 S New Hampshire Ave,Los Angeles,CA,90006-4557,Los Angeles,6037,6037221220,34,34.04497,-118.2927,Family,LMSA,
QUEEN APARTMENTS,2620 Orchard Ave,Los Angeles,CA,90007-2371,Los Angeles,6037,6037221820,37,34.03205,-118.28713,Family,LMSA,
WATTS ATHENS,717 W 81st St,Los Angeles,CA,90044-5969,Los Angeles,6037,6037238310,37,33.96559,-118.28587,,,4% Tax Credit
MOSAIC GARDENS AT WESTLAKE,111 Lucas Ave,Los Angeles,CA,90026-7136,Los Angeles,6037,6037208302,34,34.061693,-118.259928,Family,,9% Tax Credit
CORONEL APARTMENTS,1600 N Serrano Ave,Los Angeles,CA,90027-4806,Los Angeles,6037,6037190520,28,34.100001,-118.306726,Family,,4% and 9% Tax Credit
CRENSHAW VILLAS,2645 Crenshaw Blvd,Los Angeles,CA,90016-3165,Los Angeles,6037,6037220000,37,34.031428,-118.335509,Elderly or disabled,,9% Tax Credit
PRESERVATION II,300 E 51st St,Los Angeles,CA,90011-4553,Los Angeles,6037,6037229300,40,33.99644,-118.27011,Elderly or disabled,,4% Tax Credit
RHF CRENSHAW GARDENS,3411 Crenshaw Blvd,Los Angeles,CA,90016-4874,Los Angeles,6037,6037220000,37,34.025132,-118.335491,Family,,9% Tax Credit
HARMONY GATES,5220 HARMONY AVE,Los Angeles,CA,91601,Los Angeles,6037,6037125320,29,34.165561,-118.366249,Family,,4% Tax Credit
RICHARD N HOGAN MANOR,5506 S Figueroa St,Los Angeles,CA,90037-4071,Los Angeles,6037,6037232700,37,33.99231,-118.28257,Family,,9% Tax Credit
PRESERVATION I,1156 W Adams Blvd,Los Angeles,CA,90007-2374,Los Angeles,6037,6037221820,37,34.03194,-118.28536,,,4% Tax Credit
LAS BRISAS,200 N Bixel St,Los Angeles,CA,90026-6608,Los Angeles,6037,6037208000,34,34.06266,-118.25523,Family,,9% Tax Credit
BOYLE APARTMENTS AND JEWEL TERRACE APARTMENTS,2950 Van Buren Pl,Los Angeles,CA,90007-2867,Los Angeles,6037,6037222100,37,34.027722,-118.296673,,,4% Tax Credit
COLUMBUS TERRACE APARTMENTS,8606 Columbus Ave,Los Angeles,CA,91343-5909,Los Angeles,6037,6037117530,29,34.2266,-118.464864,Elderly,Sec 8 NC,
RAYEN PARK APARTMENTS,15233 Rayen St,Los Angeles,CA,91343-4458,Los Angeles,6037,6037117510,29,34.23197,-118.46439,Elderly,Preservation,
ST NICHOLAS HOUSING DEVELOPMENT,10220 Aqueduct Ave,Los Angeles,CA,91343-1546,Los Angeles,6037,6037109800,29,34.2564,-118.47384,Elderly,LMSA,
PLUMMER VILLAGE,15450 Plummer St,Los Angeles,CA,91343-2141,Los Angeles,6037,6037117201,29,34.24269,-118.46858,Elderly,Sec 8 NC,9% Tax Credit
COLUMBUS SQUARE,8561 Columbus Ave,Los Angeles,CA,91343-6079,Los Angeles,6037,6037117530,29,34.22573,-118.46554,Elderly,LMSA,4% Tax Credit
HOMESTEAD,16020 Gresham St,Los Angeles,CA,91343-4838,Los Angeles,6037,6037117404,29,34.23092,-118.48116,Disabled,PRAC/811,
VILLAGE ACQUISITION II,9258 Hayvenhurst Ave,Los Angeles,CA,91343-3607,Los Angeles,6037,6037117301,29,34.23842,-118.49368,Disabled,PRAC/811,
VILLAGE CHOICE,16124 Tupper St,Los Angeles,CA,91343-3048,Los Angeles,6037,6037117202,29,34.23919,-118.4831,Disabled,PRAC/811,
CASA SEVILLE/MEMORY PARK,8750 Memory Park Ave,Los Angeles,CA,91343-5319,Los Angeles,6037,6037117520,29,34.22904,-118.46429,Family,,9% Tax Credit
DECRO NORDHOFF APARTMENTS,15543 Nordhoff St,Los Angeles,CA,91343-3247,Los Angeles,6037,6037117201,29,34.23563,-118.47071,Family,,9% Tax Credit
OROZCO VILLAS,8920 Orion Ave,Los Angeles,CA,91343-4261,Los Angeles,6037,6037117405,29,34.2323,-118.47189,Family,,9% Tax Credit
MISSION CITY LIGHTS,9121 Sepulveda Blvd,Los Angeles,CA,91343-6968,Los Angeles,6037,6037117201,29,34.2359,-118.46757,Family,,9% Tax Credit
VALLEY VIEW,9015 Orion Ave,Los Angeles,CA,91343-4296,Los Angeles,6037,6037117405,29,34.23401,-118.47206,Family,,9% Tax Credit
WOODLAND TERRACE,15532 Nordhoff St,Los Angeles,CA,91343-3263,Los Angeles,6037,6037117405,29,34.23545,-118.47049,,,4% Tax Credit
ORION GARDENS APARTMENTS,8955 Orion Ave,Los Angeles,CA,91343-4310,Los Angeles,6037,6037117405,29,34.23292,-118.47207,Family,,9% Tax Credit
RAYEN APARTMENTS,15320 Rayen St,Los Angeles,CA,91343-5165,Los Angeles,6037,6037117520,29,34.2318,-118.46597,,,9% Tax Credit
RAINBOW HOMES,15917 Chase St,Los Angeles,CA,91343-6305,Los Angeles,6037,6037117404,29,34.224997,-118.478936,Disabled,PRAC/811,
THE CROSSINGS AT NORTH HILLS,9333 Sepulveda Blvd,Los Angeles,CA,91343,Los Angeles,6037,6037117201,29,34.23974,-118.46754,Family,,9% Tax Credit
ND SEPULVEDA I,16000 Lassen St,Los Angeles,CA,91343-1685,Los Angeles,6037,6037117202,29,34.24914,-118.48113,,,9% Tax Credit
ND SEPULVEDA II,9700 Woodley Ave,Los Angeles,CA,91343-1944,Los Angeles,6037,6037117202,29,34.2474,-118.48375,,,9% Tax Credit
LANKERSHIM ARMS,7628 Lankershim Blvd,Los Angeles,CA,91605-2887,Los Angeles,6037,6037121900,29,34.209205,-118.38659,Family,Sec 8 NC,
RUNNYMEDE HOLIDAY APARTMENTS,11750 Runnymede St,Los Angeles,CA,91605-3221,Los Angeles,6037,6037122410,29,34.205621,-118.388891,Family,Preservation,
CASA LINDA II,11233 Hatteras St,Los Angeles,CA,91601-1249,Los Angeles,6037,6037124203,29,34.17605,-118.37581,Family,HFDA/8 NC,
CASA LINDA I,11425 Tiara St,Los Angeles,CA,91601-1124,Los Angeles,6037,6037124102,29,34.17859,-118.38028,Family,HFDA/8 NC,
CASA LINDA III,5654 Fulcher Ave,Los Angeles,CA,91601-1945,Los Angeles,6037,6037124204,29,34.17372,-118.3727,Family,HFDA/8 NC,
SIMPSON ARBOR APARTMENTS,7507 Simpson Ave,Los Angeles,CA,91605-3225,Los Angeles,6037,6037122410,29,34.20676,-118.38913,Family,LMSA,9% Tax Credit
LAS CASITAS III,6845 Hinds Ave,Los Angeles,CA,91605-6068,Los Angeles,6037,6037123203,29,34.19534,-118.39139,Family,HFDA/8 NC,
LAS CASITAS I,11301 Hatteras St,Los Angeles,CA,91601-1294,Los Angeles,6037,6037124203,29,34.176059,-118.376811,Family,HFDA/8 NC,
HAMLIN ESTATES,11735 Hamlin St,Los Angeles,CA,91606-2858,Los Angeles,6037,6037123901,29,34.18903,-118.38895,Family,Sec 8 NC,4% Tax Credit
NORTH HOLLYWOOD SR CITIZENS,11035 Magnolia Blvd,Los Angeles,CA,91601-3851,Los Angeles,6037,6037125320,29,34.16545,-118.37112,Elderly,202/8 NC,
GARDEN VILLAS,5530 Klump Ave,Los Angeles,CA,91601-2494,Los Angeles,6037,6037125310,29,34.170651,-118.375091,Disabled,PRAC/811,
GOLDEN YEARS SR,11330 Otsego St,Los Angeles,CA,91601-3793,Los Angeles,6037,6037125401,29,34.16269,-118.37818,Elderly,PRAC/202,
HARMONY GATE,5220 Harmony Ave,Los Angeles,CA,91601-5518,Los Angeles,6037,6037125320,29,34.16545,-118.36608,,,9% Tax Credit
HARMONY GARDENS,5239 Harmony Ave,Los Angeles,CA,91601-5532,Los Angeles,6037,6037125320,29,34.16552,-118.36653,Family,,9% Tax Credit
WOODBRIDGE PARK APARTMENTS,11220 Moorpark St,Los Angeles,CA,91602-2647,Los Angeles,6037,6037143200,30,34.1495,-118.37515,,,4% Tax Credit
VANOWEN GARDENS,11754 Vanowen St,Los Angeles,CA,91605-6171,Los Angeles,6037,6037123203,29,34.19362,-118.38968,Family,,9% Tax Credit
PARK PLAZA SENIOR APARTMENTS,6755 Rhodes Ave,Los Angeles,CA,91606-1380,Los Angeles,6037,6037123304,29,34.19326,-118.40315,Elderly,,9% Tax Credit
PARK PLAZA WEST SENIOR APARTMENTS,6750 Whitsett Ave,Los Angeles,CA,91606-1394,Los Angeles,6037,6037123304,29,34.19305,-118.40515,Elderly,,4% Tax Credit
NOHO SENIOR TERRACES,10747 Magnolia Blvd,Los Angeles,CA,91601-4093,Los Angeles,6037,6037125320,29,34.16499,-118.36508,Elderly,,4% Tax Credit
COLONIA CORONA APARTMENTS,13036 Sherman Way,Los Angeles,CA,91605-4992,Los Angeles,6037,6037123420,29,34.20071,-118.41746,Family,,4% Tax Credit
SIMPSON VILLAS,6927 Simpson Ave,Los Angeles,CA,91605-6139,Los Angeles,6037,6037123203,29,34.19674,-118.38925,Family,Sec 8 NC,
VINELAND AVENUE SENIOR HOUSING,4900 Vineland Ave,Los Angeles,CA,91601-6511,Los Angeles,6037,6037125401,29,34.159466,-118.369952,Elderly,PRAC/202,4% Tax Credit
LAS CASITAS II,6923 Morella Ave,Los Angeles,CA,91605-6071,Los Angeles,6037,6037123203,29,34.196494,-118.390324,Family,HFDA/8 NC,
NOHO SENIOR VILLAS,5539 Klump Ave,Los Angeles,CA,91601,Los Angeles,6037,6037125310,29,34.17105,-118.37521,Elderly or disabled,,4% Tax Credit
DENNY PLACE & WILLOW WOOD APARTMENTS,5620 Denny Ave,Los Angeles,CA,91601-2102,Los Angeles,6037,6037124300,29,34.172917,-118.364527,,,4% Tax Credit
PLUMMER PARK APARTMENTS,17051 Plummer St,Los Angeles,CA,91325-2540,Los Angeles,6037,6037115101,30,34.2431,-118.50435,Elderly,Sec 8 NC,
PARTHENIA ST SENIOR HOUSING,19455 Parthenia St,Los Angeles,CA,91324-6700,Los Angeles,6037,6037113401,30,34.22831,-118.55695,Elderly,PRAC/202,
WHITE OAK GROUP HOME,9205 White Oak Ave,Los Angeles,CA,91325-2335,Los Angeles,6037,6037115104,30,34.237614,-118.52047,Disabled,PRAC/811,
DISCOVERING HORIZON,8903 Balboa Blvd,Los Angeles,CA,91325-2608,Los Angeles,6037,6037115101,30,34.23519,-118.50262,Disabled,PRAC/811,
OSCAR HOUSE GROUP HOME,18509 San Fernando Mission Blvd,Los Angeles,CA,91326-2434,Los Angeles,6037,6037111206,30,34.27186,-118.53651,Disabled,PRAC/811,
NORTHRIDGE PARK,9628 Reseda Blvd,Los Angeles,CA,91324-2057,Los Angeles,6037,6037115201,30,34.24545,-118.53599,Elderly,Sec 8 NC,
VISTA DEL SOL,7843 Encino Ave,Los Angeles,CA,91325-4335,Los Angeles,6037,6037131200,30,34.213322,-118.514403,Disabled,PRAC/811,
ASHWOOD COURT,19201 Nordhoff St,Los Angeles,CA,91324-3685,Los Angeles,6037,6037115301,30,34.23557,-118.55037,Family,,9% Tax Credit
SOPHIA RIDGE APARTMENTS,9601 Reseda Blvd,Los Angeles,CA,91324-2319,Los Angeles,6037,6037115201,30,34.24496,-118.53618,,,4% Tax Credit
RIDGDECROFT APARTMENTS,9555 Reseda Blvd,Los Angeles,CA,91324-2367,Los Angeles,6037,6037115201,30,34.24403,-118.53617,Family,,4% Tax Credit
WHITE OAK-LASSEN APARTMENTS,9907 White Oak Ave,Los Angeles,CA,91325-4800,Los Angeles,6037,6037111302,30,34.25049,-118.51993,Family,,9% Tax Credit
BALBOA PLACE APARTMENTS,16915 Napa St,Los Angeles,CA,91343-5641,Los Angeles,6037,6037117302,30,34.22676,-118.5015,,,4% Tax Credit
HEADWAY HOUSE,8500 Shirley Ave,Los Angeles,CA,91324-4149,Los Angeles,6037,6037113401,30,34.224789,-118.557606,Disabled,PRAC/811,
VISTA HOMES,9530 Donna Ave,Los Angeles,CA,91324-1815,Los Angeles,6037,6037115301,30,34.24384,-118.54739,Disabled,PRAC/811,
PLEDGERVILLE SENIOR CITIZENS VILLA,11060 Norris Ave,Los Angeles,CA,91331-2403,Los Angeles,6037,6037104320,29,34.27099,-118.41673,Elderly,202/8 NC,
TELACU LAS FLORES,12793 Mercer St,Los Angeles,CA,91331-1383,Los Angeles,6037,6037104203,29,34.276537,-118.412356,Elderly,PRAC/202,
VAN NUYS PIERCE PARK APARTMENTS,12700 Van Nuys Blvd,Los Angeles,CA,91331-1603,Los Angeles,6037,6037104105,29,34.27599,-118.40836,Family,PD/8 SR,4% Tax Credit
HILLVIEW VILLAGE,12408 Van Nuys Blvd,Los Angeles,CA,91331-1313,Los Angeles,6037,6037104105,29,34.27961,-118.40339,,,9% Tax Credit
OSBORNE GARDENS APARTMENTS,12360 Osborne St,Los Angeles,CA,91331-2163,Los Angeles,6037,6037104704,29,34.26125,-118.40247,Family,,4% Tax Credit
LAKEVIEW TERRACE,12500 Filmore St,Los Angeles,CA,91331-1221,Los Angeles,6037,6037104204,29,34.282605,-118.404969,Family,LMSA,4% Tax Credit
OSBORNE PLACE APARTMENTS,12232 Osborne Pl,Los Angeles,CA,91331-2176,Los Angeles,6037,6037104703,29,34.260383,-118.399339,,,9% Tax Credit
PARTHENIA MANOR,14920 Parthenia St,Los Angeles,CA,91402-2731,Los Angeles,6037,6037120107,29,34.22803,-118.45781,Elderly,Preservation,
VILLAGE ACQUISITION,8033 Matilija Ave,Los Angeles,CA,91402-6126,Los Angeles,6037,6037120400,29,34.217188,-118.433142,Disabled,202/8 SR,
RIDGEVIEW MANOR,14610 Gledhill St,Los Angeles,CA,91402,Los Angeles,6037,6037119320,29,34.241059,-118.450985,Disabled,202/8 NC,
PANORAMA CITY I,14424 Plummer St,Los Angeles,CA,91402-1185,Los Angeles,6037,6037119342,29,34.24255,-118.44702,Family,Sec 8 NC,
CASA PANORAMA TOWER,14555 Osborne St,Los Angeles,CA,91402-1820,Los Angeles,6037,6037120105,29,34.23322,-118.44927,Elderly,HFDA/8 NC,
CEDROS RAYEN APARTMENTS,9009 Cedros Ave,Los Angeles,CA,91402-1663,Los Angeles,6037,6037120108,29,34.23378,-118.45363,Family,Sec 8 NC,
REGENCY 50,14540 Blythe St,Los Angeles,CA,91402-6028,Los Angeles,6037,6037120030,29,34.21513,-118.44957,Family,,9% Tax Credit
PARTHENIA COURT,14825 Parthenia St,Los Angeles,CA,91402,Los Angeles,6037,6037120108,29,34.2282,-118.45622,Family,,9% Tax Credit
HERITAGE PARK ON WOODMAN,7840 Woodman Ave,Los Angeles,CA,91402-6243,Los Angeles,6037,6037120400,29,34.21312,-118.43088,Elderly or disabled,,4% Tax Credit
ASTURIAS SENIOR APARTMENTS,9628 Van Nuys Blvd,Los Angeles,CA,91402-1047,Los Angeles,6037,6037119310,29,34.24526,-118.4501,Elderly or disabled,,9% Tax Credit
CANTABRIA SENIOR APARTMENTS,9640 Van Nuys Blvd,Los Angeles,CA,91402-6789,Los Angeles,6037,6037119310,29,34.24565,-118.44988,Elderly or disabled,,9% Tax Credit
BLYTHE STREET APARTMENTS,14607 Blythe St,Los Angeles,CA,91402-6863,Los Angeles,6037,6037120030,29,34.21511,-118.45421,Family,,9% Tax Credit
ANDALUCIA SENIOR APARTMENTS,8101 Sepulveda Blvd,Los Angeles,CA,91402-4304,Los Angeles,6037,6037127520,29,34.21792,-118.46637,Elderly or disabled,,9% Tax Credit
WILLIS AVENUE APARTMENTS,14731 Rayen St,Los Angeles,CA,91402-1605,Los Angeles,6037,6037120108,29,34.232054,-118.454815,,,9% Tax Credit
TOBIAS TERRACE APARTMENTS,9247 Van Nuys Blvd,Los Angeles,CA,91402-1846,Los Angeles,6037,6037119320,29,34.238669,-118.450678,Family,,9% Tax Credit
MONTECITO TERRACES,14655 Blythe St,Los Angeles,CA,91402-5998,Los Angeles,6037,6037120030,29,34.215701,-118.452763,Elderly or disabled,,9% Tax Credit
PANORAMA VIEW APARTMENTS,9248 Van Nuys Blvd,Los Angeles,CA,91402-1416,Los Angeles,6037,6037119341,29,34.238263,-118.449626,Elderly,LMSA,9% Tax Credit
FIESTA HOUSE SENIOR APARTMENTS,6639 Darby Ave,Los Angeles,CA,91335-0901,Los Angeles,6037,6037132700,30,34.191378,-118.534111,Elderly,PRAC/202,
SHERMAN WAY BILTMORE,17930 Sherman Way,Los Angeles,CA,91335-4732,Los Angeles,6037,6037132300,30,34.20092,-118.52404,Family,Preservation,
SHERMAN PARK APARTMENTS,17960 Sherman Way,Los Angeles,CA,91335-4722,Los Angeles,6037,6037132300,30,34.20092,-118.52452,Elderly,Preservation,
KITTRIDGE GARDENS II,6540 Wilbur Ave,Los Angeles,CA,91335-5927,Los Angeles,6037,6037132502,30,34.18966,-118.54466,Family,Preservation,
SHERMAN ARMS APARTMENTS,17760 Sherman Way,Los Angeles,CA,91335-3361,Los Angeles,6037,6037132300,30,34.200135,-118.520768,Elderly,Sec 8 NC,
TLC HOMES I,7937 Lindley Ave,Los Angeles,CA,91335-2122,Los Angeles,6037,6037131400,30,34.21432,-118.52742,Disabled,202/8 NC,
RESEDA MANOR,7725 Reseda Blvd,Los Angeles,CA,91335-2864,Los Angeles,6037,6037131010,30,34.21064,-118.53615,Elderly,HFDA/8 NC,
RESEDA PARK APARTMENTS,6505 Reseda Blvd,Los Angeles,CA,91335-6123,Los Angeles,6037,6037133100,30,34.18841,-118.53611,Elderly,LMSA,
RESEDA EAST,18450 Ingomar St,Los Angeles,CA,91335-2001,Los Angeles,6037,6037131400,30,34.21192,-118.53467,Elderly,HFDA/8 NC,
MENORAH HOUSE,19206 Sherman Way,Los Angeles,CA,91335-3701,Los Angeles,6037,6037132501,30,34.20089,-118.55147,Elderly,Sec 8 NC,
NEW VISIONS,7927 Lindley Ave,Los Angeles,CA,91335-2122,Los Angeles,6037,6037131400,30,34.21432,-118.52742,Disabled,PRAC/811,
VALVERDE,7600 Vanalden Ave,Los Angeles,CA,91335-1752,Los Angeles,6037,6037131600,30,34.20938,-118.54907,Disabled,202/8 NC,
KITTRIDGE GARDENS I,6640 Wilbur Ave,Los Angeles,CA,91335-5153,Los Angeles,6037,6037132502,30,34.19097,-118.54467,Family,Preservation,
KITTRIDGE PARK VILLA,18303 Kittridge St,Los Angeles,CA,91335-6137,Los Angeles,6037,6037132700,30,34.19031,-118.53171,,,4% Tax Credit
RESEDA VILLAGE,7939 Reseda Blvd,Los Angeles,CA,91335-1969,Los Angeles,6037,6037131010,30,34.214943,-118.536831,Family,,9% Tax Credit
SHERMAN VILLAGE APARTMENTS,18900 Sherman Way,Los Angeles,CA,91335-2603,Los Angeles,6037,6037132501,30,34.200677,-118.545063,Family,,9% Tax Credit
CANBY WOODS,7248 Canby Ave,Los Angeles,CA,91335,Los Angeles,6037,6037131800,30,34.2019,-118.53481,Elderly or disabled,,4% Tax Credit
CORAL WOOD COURT APARTMENTS,8039 Reseda Blvd,Los Angeles,CA,91335-1373,Los Angeles,6037,6037131010,30,34.21675,-118.53686,Family,,4% Tax Credit
RIVERWALK AT RESEDA,18425 Kittridge St,Los Angeles,CA,91335-6232,Los Angeles,6037,6037132700,30,34.190666,-118.534409,Family,,9% Tax Credit
NEW HORIZONS I,15756 Parthenia St,Los Angeles,CA,91343-7609,Los Angeles,6037,6037117404,29,34.22823,-118.47545,Disabled,202/8 NC,
NEW HORIZONS II,15746 Parthenia St,Los Angeles,CA,91343-7610,Los Angeles,6037,6037117404,29,34.227952,-118.475819,Disabled,202/8 NC,
NEW HORIZONS III,15713 Parthenia St,Los Angeles,CA,91343-7606,Los Angeles,6037,6037117404,29,34.22875,-118.474654,Disabled,202/8 NC,
WEST VALLEY TLC,8808 Woodley Ave,Los Angeles,CA,91343-4732,Los Angeles,6037,6037117404,29,34.230459,-118.484746,Disabled,202/8 SR,
NEW OPPORTUNITIES FOR LIVING,16102 Acre St,Los Angeles,CA,91343-4824,Los Angeles,6037,6037117404,29,34.23009,-118.48265,Disabled,PRAC/811,
DICKENS SENIOR HOUSING,14559 Dickens St,Los Angeles,CA,91403,Los Angeles,6037,6037141304,30,34.15027,-118.45017,Elderly,PRAC/202,
4334-4346 MATILIJA APARTMENTS,4334 Matilija Ave,Los Angeles,CA,91423-3660,Los Angeles,6037,6037141102,30,34.14953,-118.43361,,,4% Tax Credit
WILLS PARK SOUTH,4553 Willis Ave,Los Angeles,CA,91403-2791,Los Angeles,6037,6037141303,30,34.15353,-118.45532,Family,,4% Tax Credit
WILLIS PARK WEST,4573 Willis Ave,Los Angeles,CA,91403-2799,Los Angeles,6037,6037141303,30,34.15414,-118.45533,Family,,4% Tax Credit
NATICK APARTMENTS,4701 Natick Ave,Los Angeles,CA,91403-2742,Los Angeles,6037,6037141303,30,34.15585,-118.45424,,,4% Tax Credit
SHERMAN OAKS GARDENS & VILLAS,5415 Sepulveda Blvd,Los Angeles,CA,91411-3479,Los Angeles,6037,6037128801,30,34.16899,-118.46625,Family,,4% Tax Credit
ORANGEWOOD COURT APARTMENTS,5050 Sepulveda Blvd,Los Angeles,CA,91403-1546,Los Angeles,6037,6037128910,30,34.16213,-118.46606,Family,,4% Tax Credit
NEW YORKER APARTMENTS,13951 Moorpark St,Los Angeles,CA,91423-3453,Los Angeles,6037,6037141201,30,34.15069,-118.43726,,,4% Tax Credit
VISTA DEL MONTE APARTMENTS,4621 Vista del Monte Ave,Los Angeles,CA,91403-2985,Los Angeles,6037,6037141304,30,34.15495,-118.44994,,,4% Tax Credit
DICKENS COURT,14955 Dickens St,Los Angeles,CA,91403-3461,Los Angeles,6037,6037141302,30,34.15147,-118.45907,Family,,4% Tax Credit
NOBLE SENIOR HOUSING,15100 Moorpark St,Los Angeles,CA,91403-5472,Los Angeles,6037,6037141302,30,34.15391,-118.46182,Elderly or disabled,,9% Tax Credit
PENDLETON ARMS,8400 Laurel Canyon Blvd,Los Angeles,CA,91352-3863,Los Angeles,6037,6037121010,29,34.22328,-118.39642,Family,Sec 8 NC,
SUNLAND PARK APARTMENTS,10836 Roycroft St,Los Angeles,CA,91352-1652,Los Angeles,6037,6037102107,28,34.23909,-118.3672,Family,Preservation,
STRATHERN COURT,11100 Strathern St,Los Angeles,CA,91352-3931,Los Angeles,6037,6037122121,29,34.2156,-118.37253,Family,Sec 8 NC,
VILLA DEL SOL APARTMENTS,11971 Allegheny St,Los Angeles,CA,91352-1837,Los Angeles,6037,6037121222,29,34.23667,-118.39384,Family,,4% Tax Credit
VINELAND PLACE,7843 Vineland Ave,Los Angeles,CA,91352-4555,Los Angeles,6037,6037122120,29,34.21284,-118.37042,Family,,9% Tax Credit
GLENOAKS GARDENS,8925 Glenoaks Blvd,Los Angeles,CA,91352-2002,Los Angeles,6037,6037121102,28,34.230833,-118.368043,,,9% Tax Credit
PALM VILLAGE SENIOR APARTMENTS,9050 Laurel Canyon Blvd,Los Angeles,CA,91352-1600,Los Angeles,6037,6037121210,29,34.23398,-118.40574,Elderly,PRAC/202,
BURNS MANOR,8155 Foothill Blvd,Los Angeles,CA,91040-2967,Los Angeles,6037,6037103102,28,34.25975,-118.31071,Elderly,202/8 NC,4% Tax Credit
GLENOAKS TOWNHOMES,14300 Foothill Blvd,Los Angeles,CA,91342-7501,Los Angeles,6037,6037106405,29,34.31922,-118.44566,Family,Sec 8 NC,
ASTORIA GARDENS,13997 Astoria St,Los Angeles,CA,91342-2963,Los Angeles,6037,6037106408,29,34.312166,-118.438194,Family,LMSA,
OLIVE MANOR,13155 BROMONT AVE,Los Angeles,CA,91342,Los Angeles,6037,6037106407,29,34.309658,-118.436645,Elderly,PRAC/202,
RANCH HOUSE GROUP HOME,13655 Woodcock Ave,Los Angeles,CA,91342-1146,Los Angeles,6037,6037106510,29,34.31872,-118.47378,Disabled,PRAC/811,
VALLEY VILLAGE HARDING,12920 Altano St,Los Angeles,CA,91342,Los Angeles,6037,6037106112,29,34.30563,-118.41439,Disabled,PRAC/811,
ASTORIA HOUSE,14185 Astoria St,Los Angeles,CA,91342-4250,Los Angeles,6037,6037106403,29,34.308702,-118.442459,Disabled,PRAC/811,
SILVERCREST LAKE VIEW TERRACE,11850 Foothill Blvd,Los Angeles,CA,91342-0835,Los Angeles,6037,6037104108,29,34.274154,-118.394879,Elderly,PRAC/202,
CASA OLIVO,14109 Hubbard St,Los Angeles,CA,91342-4713,Los Angeles,6037,6037107010,29,34.29794,-118.44107,Disabled,202/8 NC,
VALLEY VILLAGE #2,12769 Gladstone Ave,Los Angeles,CA,91342-4839,Los Angeles,6037,6037106113,29,34.3019,-118.41845,Disabled,202/8 SR,
VALLEY VILLAGE #3,13450 Bradley Ave,Los Angeles,CA,91342-7604,Los Angeles,6037,6037106510,29,34.31654,-118.47437,Disabled,202/8 SR,
CASA VALLE,14440 Bledsoe St,Los Angeles,CA,91342,Los Angeles,6037,6037106405,29,34.3202,-118.44847,Disabled,202/8 NC,
VALLEY COMMITTEE HOUSE,13290 Bradley Ave,Los Angeles,CA,91342-1203,Los Angeles,6037,6037106520,29,34.313019,-118.469064,Disabled,202/8 NC,
ASTORIA PLACE TOWNHOMES,13230 Bromont Ave,Los Angeles,CA,91342-4320,Los Angeles,6037,6037106407,29,34.31097,-118.43791,Family,,9% Tax Credit
MOUNTAIN VIEW MANOR APARTMENTS,12960 Dronfield Ave,Los Angeles,CA,91342-4311,Los Angeles,6037,6037106114,29,34.30579,-118.43443,Elderly or disabled,,4% Tax Credit
WILLOW TREE VILLAGES,12000 Foothill Blvd,Los Angeles,CA,91342-8217,Los Angeles,6037,6037104108,29,34.27634,-118.39717,Family,,9% Tax Credit
EL DORADO FAMILY APARTMENTS,12129 El Dorado Ave,Los Angeles,CA,91342-5232,Los Angeles,6037,6037106648,29,34.28954,-118.45088,Family,,9% Tax Credit
BONITA RANCH APARTMENTS,14164 Foothill Blvd,Los Angeles,CA,91342-8016,Los Angeles,6037,6037106405,29,34.316897,-118.442504,Family,Sec 8 NC,
OAKRIDGE FAMILY HOMES,15455 Glenoaks Blvd,Los Angeles,CA,91342,Los Angeles,6037,6037106406,29,34.32338,-118.46942,Family,,4% Tax Credit
SEVEN PALMS APARTMENTS,12831 San Fernando Rd,Los Angeles,CA,91342-7810,Los Angeles,6037,6037106604,29,34.302668,-118.464451,,,4% Tax Credit
FOOTHILL TERRACE,13751 Hubbard St,Los Angeles,CA,91342-4315,Los Angeles,6037,6037106114,29,34.30544,-118.43266,Family,Sec 8 NC,4% and 9% Tax Credit
APPERSON STREET APARTMENTS,7412 Apperson St,Los Angeles,CA,91042-1826,Los Angeles,6037,6037101210,28,34.255773,-118.293522,Family,Sec 8 NC,
FOOTHILL GARDENS,7687 Foothill Blvd,Los Angeles,CA,91042-2146,Los Angeles,6037,6037101110,28,34.25667,-118.29959,Elderly,Sec 8 NC,
TUJUNGA GARDENS,6643 Foothill Blvd,Los Angeles,CA,91042-2739,Los Angeles,6037,6037101220,28,34.2468,-118.27678,Elderly,Sec 8 NC,
DAY STREET APARTMENTS,7639 Day St,Los Angeles,CA,91042-2594,Los Angeles,6037,6037101400,28,34.254945,-118.299486,,,9% Tax Credit
VALLEY VILLAGE APARTMENTS,12111 Chandler Blvd,Los Angeles,CA,91607-4356,Los Angeles,6037,6037124902,30,34.16896,-118.39733,Elderly or disabled,,9% Tax Credit
WOODMAN MANOR APARTMENTS,6712 Woodman Ave,Los Angeles,CA,91401-1033,Los Angeles,6037,6037123510,29,34.19257,-118.43116,Elderly,Sec 8 NC,
HFL VAN NUYS,13457 Vanowen St,Los Angeles,CA,91405-4385,Los Angeles,6037,6037123510,29,34.19428,-118.426454,Disabled,PAC/811,
FICKETT TOWERS,14801 Sherman Way,Los Angeles,CA,91405-2229,Los Angeles,6037,6037127220,29,34.20127,-118.45153,Elderly,LMSA,4% Tax Credit
WEST VALLEY TOWERS,14650 Sherman Way,Los Angeles,CA,91405-2245,Los Angeles,6037,6037127803,29,34.2011,-118.45035,Elderly,202/8 NC,4% Tax Credit
DORIS FOSTER,14807 Friar St,Los Angeles,CA,91411,Los Angeles,6037,6037128302,29,34.18575,-118.45629,Disabled,202/8 NC,
HFL VANOWEN APARTMENTS,14419 Vanowen St,Los Angeles,CA,91405-4059,Los Angeles,6037,6037127910,29,34.19401,-118.44694,Disabled,PRAC/811,
VILLA VALLEY APARTMENTS,15950 Sherman Way,Los Angeles,CA,91406-4046,Los Angeles,6037,6037127604,29,34.200359,-118.48093,Elderly,HFDA/8 NC,
VPH ADULT RETIREMENT CENTER,15211 Sherman Way,Los Angeles,CA,91405-2048,Los Angeles,6037,6037127210,29,34.20115,-118.46521,Elderly,202/8 NC,4% Tax Credit
OXNARD VILLA,14045 Oxnard St,Los Angeles,CA,91401-3860,Los Angeles,6037,6037128601,29,34.17948,-118.43911,Family,,9% Tax Credit
HAZELTINE & WYANDOTTE APARTMENTS,7250 Hazeltine Ave,Los Angeles,CA,91405-5634,Los Angeles,6037,6037127104,29,34.20211,-118.4399,Family,,9% Tax Credit
WYANDOTTE APARTMENTS,14630 Wyandotte St,Los Angeles,CA,91405-1974,Los Angeles,6037,6037127220,29,34.20292,-118.45149,Family,,9% Tax Credit
PAZ VILLAS,14643 Blythe St,Los Angeles,CA,91402-5947,Los Angeles,6037,6037120030,29,34.21531,-118.45017,Family,,9% Tax Credit
OAK TREE VILLAGE,15231 Sherman Way,Los Angeles,CA,91405-6313,Los Angeles,6037,6037127210,29,34.20115,-118.46543,Family,,9% Tax Credit
ANGELS CITY LIGHTS,13915 Oxnard St,Los Angeles,CA,91401-3885,Los Angeles,6037,6037128601,29,34.17948,-118.43601,Family,,9% Tax Credit
VICTORY GARDENS,13436 Victory Blvd,Los Angeles,CA,91401-1866,Los Angeles,6037,6037123602,29,34.18657,-118.42576,,,9% Tax Credit
CORNERSTONE APARTMENTS,14128 Calvert St,Los Angeles,CA,91401-3473,Los Angeles,6037,6037128210,29,34.18157,-118.4406,,,9% Tax Credit
SATICOY GARDENS,14649 Saticoy St,Los Angeles,CA,91405-1243,Los Angeles,6037,6037127210,29,34.20854,-118.45234,Family,,4% Tax Credit
SHERMAN WAY SENIOR HSG,15864 Sherman Way,Los Angeles,CA,91406-4078,Los Angeles,6037,6037127400,29,34.20096,-118.47853,Elderly,202/8 NC,
PARK PLACE APARTMENTS,7970 Woodman Ave,Los Angeles,CA,91402-6316,Los Angeles,6037,6037120400,29,34.21579,-118.43088,,,4% Tax Credit
HFL SEQUOIA APARTMENTS,14402 Hamlin St,Los Angeles,CA,91401-1431,Los Angeles,6037,6037128102,29,34.188351,-118.446802,Disabled,PRAC/811,9% Tax Credit
IVY TERRACE,13751 Sherman Way,Los Angeles,CA,91405-2679,Los Angeles,6037,6037127104,29,34.201997,-118.432802,Family,,4% Tax Credit
LA CORUNA SENIOR APARTMENTS,15301 Lanark St,Los Angeles,CA,91406-1432,Los Angeles,6037,6037127520,29,34.218244,-118.466945,Elderly or disabled,,4% Tax Credit
ONE VENICE,1 N Venice Blvd,Los Angeles,CA,90291-4177,Los Angeles,6037,6037273502,33,33.98447,-118.47133,Elderly,Sec 8 NC,
ADDA & PAUL SAFRAN SENIOR HOUSING,151 Ocean Front Walk,Los Angeles,CA,90291-2441,Los Angeles,6037,6037273402,33,33.99564,-118.48145,Elderly,PRAC/202,
NEW VENICE 1B,645 Indiana Ave,Los Angeles,CA,90291-3094,Los Angeles,6037,6037273200,33,33.99682,-118.46831,,LMSA,
NEW VENICE 2B,410 Indiana Ave,Los Angeles,CA,90291-3082,Los Angeles,6037,6037273300,33,33.99448,-118.47197,,LMSA,
BREEZES DEL MAR 1A-1D,535 Santa Clara Ave,Los Angeles,CA,90291-3759,Los Angeles,6037,6037273300,33,33.992146,-118.467624,Family,LMSA,
NEW VENICE 1D,534 Indiana Ave,Los Angeles,CA,90291-3074,Los Angeles,6037,6037273300,33,33.99542,-118.47019,,LMSA,
BREEZES DEL MAR 2A-2D,673 Santa Clara Ave,Los Angeles,CA,90291,Los Angeles,6037,6037273200,33,33.99309,-118.46545,Family,LMSA,
NEW VENICE 3C,1408 Linden Ave,Los Angeles,CA,90291-3875,Los Angeles,6037,6037273600,33,33.99636,-118.46171,,LMSA,
NEW VENICE 2D,919 5th Ave,Los Angeles,CA,90291-3068,Los Angeles,6037,6037273300,33,33.99385,-118.47063,,LMSA,
NEW VENICE 2C,1002 5th Ave,Los Angeles,CA,90291-3381,Los Angeles,6037,6037273300,33,33.99347,-118.47012,,LMSA,
BREEZES DEL MAR 3A-3C,517 Indiana Ave,Los Angeles,CA,90291-5402,Los Angeles,6037,6037273300,33,33.9954,-118.47099,Family,LMSA,
BREEZES DEL MAR 4A-4C,353 Rennie Ave,Los Angeles,CA,90291-2671,Los Angeles,6037,6037273300,33,33.99761,-118.47234,Family,LMSA,
NEW VENICE 4B,915 7th Ave,Los Angeles,CA,90291-3096,Los Angeles,6037,6037273200,33,33.99635,-118.46593,,LMSA,
NEW VENICE 4C,610 6th Ave,Los Angeles,CA,90291-2652,Los Angeles,6037,6037273300,33,33.99744,-118.47,,LMSA,
NEW VENICE 1C,509 Sunset Ave,Los Angeles,CA,90291-2683,Los Angeles,6037,6037273300,33,33.99668,-118.47234,,LMSA,
NEW VENICE 3B,664 Brooks Ave,Los Angeles,CA,90291-3093,Los Angeles,6037,6037273200,33,33.9962,-118.46707,,LMSA,
NAVY BLUE APARTMENTS,102 Navy St,Los Angeles,CA,90291-2584,Los Angeles,6037,6037273402,33,33.9969,-118.47938,,,9% Tax Credit
TABOR COURTS,345 4th Ave,Los Angeles,CA,90291-8657,Los Angeles,6037,6037273300,33,33.99631,-118.47394,Family,,9% Tax Credit
COMMUNITY HOUSE,23710 Community St,Los Angeles,CA,91304-3003,Los Angeles,6037,6037113231,30,34.221423,-118.644127,Disabled,PRAC/811,
LIBERTY VILLAGE,22439 Marlin Pl,Los Angeles,CA,91307-2622,Los Angeles,6037,6037135102,30,34.19688,-118.6172,Disabled,PRAC/811,
VILLAGE ACQUISITION III,23801 Archwood St,Los Angeles,CA,91307-3004,Los Angeles,6037,6037135203,30,34.19176,-118.64522,Disabled,PRAC/811,
ROSCOE APARTMENTS,20234 Roscoe Blvd,Los Angeles,CA,91306-1679,Los Angeles,6037,6037134103,30,34.22005,-118.57425,Family,,9% Tax Credit
RUNNYMEDE SPRINGS,20422 Cohasset St,Los Angeles,CA,91306-3058,Los Angeles,6037,6037134710,30,34.20702,-118.57716,Family,,9% Tax Credit
WINNETKA SENIOR APARTMENTS,20750 Sherman Way Unit 128,Los Angeles,CA,91306-3782,Los Angeles,6037,6037134002,30,34.200501,-118.585575,Elderly or disabled,,4% Tax Credit
RANCHO DEL VALLE,6560 Winnetka Ave,Los Angeles,CA,91367-2700,Los Angeles,6037,6037134901,30,34.189977,-118.569889,Disabled,202/8 NC,
OWENSMOUTH GARDENS,6300 Owensmouth Ave,Los Angeles,CA,91367-2361,Los Angeles,6037,6037135114,30,34.18449,-118.60143,Elderly,Sec 8 NC,
PALMDALE DESERT CLUB APARTMENTS,37902 20th St E,Palmdale,CA,93550-5454,Los Angeles,6037,6037910603,25,34.571094,-118.09383,Family,Sec 8 NC,
DESERT VIEW APARTMENTS,38633 10th St E,Palmdale,CA,93550-3885,Los Angeles,6037,6037910501,25,34.585228,-118.112964,Family,Sec 8 NC,
PALMDALE APARTMENTS,38002 15th St E,Palmdale,CA,93550-5171,Los Angeles,6037,6037910502,25,34.5734,-118.10223,Family,LMSA,
VILLAGE GARDENS,1020 E Avenue R,Palmdale,CA,93550-1951,Los Angeles,6037,6037910504,25,34.571903,-118.110566,Family,Sec 8 NC,
PALMDALE GARDENS APARTMENTS,38601 10th St E,Palmdale,CA,93550-3806,Los Angeles,6037,6037910501,25,34.5844,-118.11294,Elderly,Sec 8 NC,
STANRIDGE HOMES #3,38940 Stanridge Ave,Palmdale,CA,93550-3243,Los Angeles,6037,6037910201,25,34.590071,-118.126121,Family,Sec 8 NC,
STANRIDGE HOMES #2,38905 Stanridge Ave,Palmdale,CA,93550-3242,Los Angeles,6037,6037910201,25,34.58973,-118.12676,Family,Sec 8 NC,
STANRIDGE HOMES #1,38941 Stanridge Ave,Palmdale,CA,93550-3242,Los Angeles,6037,6037910201,25,34.58973,-118.12676,Family,Sec 8 NC,
EAST 35TH STREET APARTMENTS,37929 35th St E,Palmdale,CA,93550-5659,Los Angeles,6037,6037910605,25,34.57196,-118.06768,Family,Sec 8 NC,
LONGHORN PAVILION,36523 25th St E,Palmdale,CA,93550-4497,Los Angeles,6037,6037910707,25,34.55462,-118.08729,Family,,9% Tax Credit
CASABLANCA APARTMENTS,4160 E Avenue R,Palmdale,CA,93552-4588,Los Angeles,6037,6037910711,25,34.57212,-118.055134,Family,,9% Tax Credit
SIERRA VIEW GARDENS,37850 20th St E,Palmdale,CA,93550-5417,Los Angeles,6037,6037910603,25,34.57039,-118.09286,Elderly or disabled,,9% Tax Credit
DESERT SENIOR LIVING,38780 Orchid View Pl,Palmdale,CA,93550-6510,Los Angeles,6037,6037910502,25,34.58644,-118.1061,Elderly or disabled,,9% Tax Credit
WHISPERING PALMS APARTMENTS,38250 9th St E,Palmdale,CA,93550-4600,Los Angeles,6037,6037910501,25,34.57695,-118.11414,Elderly or disabled,,4% Tax Credit
PALO VERDE APARTMENTS,38235 10th St E,Palmdale,CA,93550-4722,Los Angeles,6037,6037910501,25,34.57665,-118.1119,Elderly or disabled,,9% Tax Credit
SUMMER TERRACE,38530 Tierra Subida Ave,Palmdale,CA,93551-4726,Los Angeles,6037,6037910401,25,34.58061,-118.14722,Elderly or disabled,,9% Tax Credit
WRIGHT BROTHERS COURT,38832 4th St E,Palmdale,CA,93550-3341,Los Angeles,6037,6037910201,25,34.588913,-118.122977,Family,,4% Tax Credit
PALMDALIA APARTMENTS,38040 11th St E,Palmdale,CA,93550-5392,Los Angeles,6037,6037910501,25,34.573252,-118.109382,Family,LMSA,4% Tax Credit
THE ARBOR AT PALMDALE,1000 E Avenue Q,Palmdale,CA,93550-3811,Los Angeles,6037,6037910501,25,34.58674,-118.110842,Family,Sec 8 NC,4% Tax Credit
TWIN PALMS APARTMENTS,1105 E Avenue Q,Palmdale,CA,93550,Los Angeles,6037,6037910101,25,34.569,-118.0959,Family,,9% Tax Credit
QUEENS TWELVE,547 E Avenue Q12,Palmdale,CA,93550-2369,Los Angeles,6037,6037910403,25,34.575345,-118.118923,Family,Sec 8 NC,
COURSON ARTS COLONY EAST,939 E Avenue Q12,Palmdale,CA,93550-5306,Los Angeles,6037,6037910501,25,34.575367,-118.113309,Family,,9% Tax Credit
HFL ASHTABULA HOMES,389 E Ashtabula St,Pasadena,CA,91104-4202,Los Angeles,6037,6037462001,27,34.1593,-118.142477,Family,PRAC/811,
CASA D'ORO II,1115 N Chester Ave,Pasadena,CA,91104-2946,Los Angeles,6037,6037462400,27,34.16592,-118.12453,Disabled,PRAC/811,
PASADENA ACCESSIBLE APARTMENTS,915 E Rio Grande St,Pasadena,CA,91104-2419,Los Angeles,6037,6037461400,27,34.17059,-118.13181,Disabled,PRAC/811,
WYNN HOUSE,1920 E Villa St,Pasadena,CA,91107-2333,Los Angeles,6037,6037462700,27,34.15428,-118.11103,Disabled,PRAC/811,
CASA D'ORO I,1370 N Dominion Ave,Pasadena,CA,91104-2708,Los Angeles,6037,6037461300,27,34.16998,-118.11413,Disabled,PRAC/811,
VILLA YUCATAN,2186 E Villa St,Pasadena,CA,91107-2415,Los Angeles,6037,6037462800,27,34.15429,-118.10547,Family,LMSA,
GREEN HOTEL,50 E Green St,Pasadena,CA,91105-2043,Los Angeles,6037,6037463602,27,34.14442,-118.14966,Elderly,LMSA,
THE GROVES,700 E Mountain St,Pasadena,CA,91104-4569,Los Angeles,6037,6037462100,27,34.16146,-118.13624,Family,LMSA,4% Tax Credit
MAGNOLIA TOWNHOMES,1172 N Raymond Ave,Pasadena,CA,91103-2665,Los Angeles,6037,6037462002,27,34.16591,-118.14898,Family,Sec 8 NC,
HUDSON GARDENS,1255 N Hudson Ave,Pasadena,CA,91104-2868,Los Angeles,6037,6037462100,27,34.16725,-118.13408,Elderly,HFDA/8 NC,
ALLEN HOUSE,1808 Las Lunas St,Pasadena,CA,91107-2303,Los Angeles,6037,6037462700,27,34.15625,-118.112928,Disabled,PRAC/811,
ROSEWOOD COURT,1888 N Fair Oaks Ave,Pasadena,CA,91103-1660,Los Angeles,6037,6037461502,27,34.17827,-118.15067,Elderly,PRAC/202,
WAGNER HOUSE,1894 Wagner St,Pasadena,CA,91107-2341,Los Angeles,6037,6037462700,27,34.15351,-118.1119,Disabled,PRAC/811,
VILLA APARTMENTS,2089 E Villa St,Pasadena,CA,91107-2434,Los Angeles,6037,6037462800,27,34.15447,-118.10718,Disabled,PRAC/811,
DUDLEY HOUSE,2131 E Dudley St,Pasadena,CA,91104-4122,Los Angeles,6037,6037462500,27,34.162746,-118.106497,Disabled,PRAC/811,
SIERRA ROSE,3057 E Del Mar Blvd,Pasadena,CA,91107,Los Angeles,6037,6037463200,27,34.14228,-118.08731,Disabled,PRAC/811,
WASHINGTON TOWNHOUSES,529 E Washington Blvd,Pasadena,CA,91104-2263,Los Angeles,6037,6037461501,27,34.16901,-118.13956,Family,LMSA,
NORTHWEST MANOR I,985 N Raymond Ave,Pasadena,CA,91103-2609,Los Angeles,6037,6037462002,27,34.16285,-118.14913,Family,LMSA,4% Tax Credit
CROWN HOUSE,3055 E Del Mar Blvd,Pasadena,CA,91107-4425,Los Angeles,6037,6037463200,27,34.14228,-118.08731,Disabled,202/8 NC,
LA PINTORESCA,1275 LA Pintoresca Dr,Pasadena,CA,91103-2276,Los Angeles,6037,6037462002,27,34.16754,-118.14998,Elderly,PD/8 SR,
PILGRIM TOWER NORTH,560 E Villa St,Pasadena,CA,91101-1158,Los Angeles,6037,6037462201,27,34.15381,-118.13917,Elderly,LMSA,4% Tax Credit
PILGRIM TOWER EAST,440 N Madison Ave,Pasadena,CA,91101-1433,Los Angeles,6037,6037462201,27,34.15355,-118.13836,Elderly,HFDA/8 NC,
SILVERCREST-PASADENA,975 E Union St,Pasadena,CA,91106-1710,Los Angeles,6037,6037462302,27,34.14812,-118.13009,Elderly,PRAC/202,
COMMUNITY ARMS APARTMENTS,169 E Orange Grove Blvd,Pasadena,CA,91103-3432,Los Angeles,6037,6037462002,27,34.15791,-118.14691,Elderly,LMSA,4% Tax Credit
TELACU COURTYARD,42 E Walnut St,Pasadena,CA,91103-3844,Los Angeles,6037,6037461902,27,34.149221,-118.149367,Elderly,PRAC/202,
VILLA RAYMOND,455 N Raymond Ave,Pasadena,CA,91103-3702,Los Angeles,6037,6037461901,27,34.15363,-118.14903,Family,LMSA,
PARKE LOS ROBLES,626 N Los Robles Ave,Pasadena,CA,91101-1006,Los Angeles,6037,6037462201,27,34.15664,-118.14142,Family,,9% Tax Credit
HOLLY STREET VILLAGE,151 E Holly St,Pasadena,CA,91103-3910,Los Angeles,6037,6037461902,27,34.14762,-118.14753,,,4% Tax Credit
VILLA LOS ROBLES,473 N Los Robles Ave,Pasadena,CA,91101-1357,Los Angeles,6037,6037461901,27,34.15393,-118.14156,Family,,9% Tax Credit
WASHINGTON VILLA APARTMENTS,264 E Washington Blvd,Pasadena,CA,91104-2195,Los Angeles,6037,6037462001,27,34.16879,-118.14527,Family,,9% Tax Credit
EUCLID VILLA TRANSITION HOUSING,154 S Euclid Ave,Pasadena,CA,91101-4666,Los Angeles,6037,6037463602,27,34.14278,-118.1428,Family,,9% Tax Credit
ORANGE GROVE GARDENS,252 E Orange Grove Blvd,Pasadena,CA,91104-5306,Los Angeles,6037,6037461901,27,34.15775,-118.1449,Family,,9% Tax Credit
KINGS VILLAGES,1141 N Fair Oaks Ave,Pasadena,CA,91103-2513,Los Angeles,6037,6037461600,27,34.165907,-118.152628,Family,PD/8 Existing,4% Tax Credit
HERITAGE SQUARE,762 N Fair Oaks Ave,Pasadena,CA,91103-3083,Los Angeles,6037,6037462002,27,34.15893,-118.150419,,,9% Tax Credit
